; --- G-CODE CNC 1 NÉT VÙNG GIỚI HẠN ---
; Chuỗi: Nguyễn Phan Du
Nguyên quán: Triệu Sơn, Thanh Hóa
; Working Area: 150.0x150.0 mm
G21 ; Don vi: mm
G90 ; Toa do tuyet doi
G0 Z3.00 ; Lift Pen

G0 X49.82 Y85.48
G1 Z0.00 F1200
G1 X49.87 Y85.48
G0 Z3.00

G0 X95.81 Y85.02
G1 Z0.00 F1200
G1 X95.87 Y84.97
G1 X95.92 Y85.02
G1 X95.87 Y85.07
G0 Z3.00

G0 X95.87 Y84.97
G1 Z0.00 F1200
G1 X95.92 Y84.92
G1 X95.97 Y84.97
G1 X95.92 Y85.02
G0 Z3.00

G0 X95.97 Y84.82
G1 Z0.00 F1200
G1 X96.02 Y84.76
G1 X96.07 Y84.82
G1 X96.02 Y84.87
G0 Z3.00

G0 X143.30 Y84.56
G1 Z0.00 F1200
G1 X143.35 Y84.51
G1 X143.92 Y84.51
G1 X144.02 Y84.87
G1 X144.02 Y85.23
G1 X143.66 Y85.59
G1 X143.40 Y85.69
G1 X143.20 Y85.69
G1 X142.68 Y85.90
G1 X142.43 Y85.90
G1 X142.37 Y85.84
G1 X142.63 Y85.07
G1 X143.15 Y84.56
G1 X143.25 Y84.56
G0 Z3.00

G0 X113.85 Y84.56
G1 Z0.00 F1200
G1 X113.90 Y84.51
G1 X114.47 Y84.51
G1 X114.57 Y84.87
G1 X114.57 Y85.23
G1 X114.21 Y85.59
G1 X113.96 Y85.69
G1 X113.75 Y85.69
G1 X113.24 Y85.90
G1 X112.98 Y85.90
G1 X112.93 Y85.84
G1 X113.18 Y85.07
G1 X113.70 Y84.56
G1 X113.80 Y84.56
G0 Z3.00

G0 X41.75 Y84.56
G1 Z0.00 F1200
G1 X41.80 Y84.51
G1 X42.37 Y84.51
G1 X42.47 Y84.87
G1 X42.47 Y85.23
G1 X42.11 Y85.59
G1 X41.85 Y85.69
G1 X41.65 Y85.69
G1 X41.13 Y85.90
G1 X40.88 Y85.90
G1 X40.82 Y85.84
G1 X41.08 Y85.07
G1 X41.60 Y84.56
G1 X41.70 Y84.56
G0 Z3.00

G0 X35.27 Y84.25
G1 Z0.00 F1200
G1 X35.33 Y84.20
G1 X35.79 Y84.20
G1 X36.25 Y84.66
G1 X36.25 Y85.64
G1 X36.20 Y85.69
G1 X35.48 Y85.69
G1 X35.43 Y85.74
G1 X34.04 Y85.74
G1 X33.84 Y85.69
G1 X33.48 Y85.48
G1 X33.37 Y84.92
G1 X33.68 Y84.61
G1 X33.94 Y84.56
G1 X34.19 Y84.40
G1 X35.22 Y84.25
G0 Z3.00

G0 X140.11 Y83.89
G1 Z0.00 F1200
G1 X140.16 Y83.84
G1 X140.52 Y83.84
G1 X140.88 Y84.20
G1 X140.83 Y84.66
G1 X140.63 Y85.07
G1 X140.11 Y85.64
G1 X139.60 Y86.00
G1 X139.29 Y86.10
G1 X138.88 Y86.10
G1 X138.78 Y86.00
G1 X138.67 Y85.59
G1 X138.73 Y85.07
G1 X139.24 Y84.46
G1 X140.06 Y83.89
G0 Z3.00

G0 X89.29 Y83.89
G1 Z0.00 F1200
G1 X89.34 Y83.84
G1 X89.75 Y83.89
G1 X90.01 Y84.15
G1 X89.96 Y84.76
G1 X89.80 Y85.07
G1 X89.29 Y85.64
G1 X88.77 Y86.00
G1 X88.41 Y86.10
G1 X88.05 Y86.10
G1 X87.95 Y86.00
G1 X87.85 Y85.59
G1 X87.90 Y85.07
G1 X88.46 Y84.40
G1 X88.77 Y84.15
G1 X89.24 Y83.89
G0 Z3.00

G0 X140.63 Y83.79
G1 Z0.00 F1200
G1 X140.58 Y83.84
G1 X140.01 Y83.89
G1 X139.24 Y84.46
G1 X138.88 Y84.87
G1 X138.67 Y85.23
G1 X138.73 Y85.84
G1 X138.88 Y86.10
G1 X139.29 Y86.10
G1 X139.60 Y86.00
G1 X140.11 Y85.64
G1 X140.47 Y85.28
G1 X140.83 Y84.66
G1 X140.88 Y84.20
G1 X140.58 Y83.84
G1 X140.78 Y83.79
G1 X141.19 Y83.89
G1 X140.68 Y83.79
G0 Z3.00

G0 X143.35 Y83.63
G1 Z0.00 F1200
G1 X142.73 Y83.79
G1 X142.01 Y84.25
G1 X142.73 Y83.79
G1 X143.35 Y83.63
G1 X143.51 Y83.63
G1 X143.81 Y83.89
G1 X143.87 Y84.46
G1 X143.81 Y84.51
G1 X143.15 Y84.56
G1 X142.73 Y84.92
G1 X142.63 Y85.07
G1 X142.37 Y85.90
G1 X142.07 Y86.20
G1 X142.37 Y85.90
G1 X142.68 Y85.90
G1 X143.20 Y85.69
G1 X143.56 Y85.64
G1 X144.02 Y85.23
G1 X144.12 Y85.28
G1 X144.17 Y85.54
G1 X144.38 Y85.84
G1 X145.00 Y85.79
G1 X145.82 Y85.48
G1 X146.38 Y84.87
G1 X146.49 Y84.66
G1 X146.23 Y85.07
G1 X145.82 Y85.48
G1 X145.61 Y85.59
G1 X144.79 Y85.84
G1 X144.38 Y85.84
G1 X144.28 Y85.74
G1 X144.12 Y85.28
G1 X144.02 Y85.18
G1 X143.97 Y84.56
G1 X143.87 Y84.46
G1 X143.87 Y84.15
G1 X143.81 Y84.10
G1 X143.81 Y83.89
G1 X143.92 Y83.74
G1 X143.81 Y83.89
G1 X143.51 Y83.63
G1 X143.40 Y83.63
G0 Z3.00

G0 X71.81 Y83.38
G1 Z0.00 F1200
G1 X71.92 Y83.33
G1 X72.12 Y83.53
G1 X71.97 Y84.15
G1 X71.09 Y85.07
G1 X70.94 Y85.48
G1 X70.68 Y85.74
G1 X69.96 Y85.48
G1 X69.60 Y85.18
G1 X69.55 Y84.46
G1 X70.12 Y83.89
G1 X70.22 Y83.89
G1 X70.63 Y83.63
G1 X71.20 Y83.43
G1 X71.76 Y83.38
G0 Z3.00

G0 X23.61 Y83.38
G1 Z0.00 F1200
G1 X23.71 Y83.33
G1 X23.92 Y83.53
G1 X23.76 Y84.15
G1 X22.89 Y85.07
G1 X22.73 Y85.48
G1 X22.48 Y85.74
G1 X21.96 Y85.59
G1 X21.60 Y85.33
G1 X21.35 Y84.87
G1 X21.35 Y84.46
G1 X21.91 Y83.89
G1 X22.01 Y83.89
G1 X22.43 Y83.63
G1 X22.99 Y83.43
G1 X23.56 Y83.38
G0 Z3.00

G0 X12.56 Y83.17
G1 Z0.00 F1200
G1 X12.66 Y83.12
G1 X12.87 Y83.33
G1 X12.87 Y83.74
G1 X12.76 Y84.15
G1 X12.40 Y84.51
G1 X12.30 Y84.76
G1 X11.99 Y85.18
G1 X11.89 Y85.23
G1 X11.33 Y85.23
G1 X11.27 Y85.28
G1 X10.91 Y85.28
G1 X10.19 Y84.56
G1 X10.04 Y84.10
G1 X10.04 Y83.84
G1 X10.25 Y83.63
G1 X10.76 Y83.43
G1 X11.27 Y83.38
G1 X11.79 Y83.22
G1 X12.51 Y83.17
G0 Z3.00

G0 X92.32 Y83.02
G1 Z0.00 F1200
G1 X92.16 Y83.17
G1 X91.91 Y83.79
G1 X91.65 Y84.04
G1 X91.65 Y84.76
G1 X91.60 Y84.82
G1 X91.65 Y84.92
G1 X91.60 Y85.07
G1 X91.65 Y85.54
G1 X91.70 Y85.59
G1 X91.60 Y85.12
G1 X91.65 Y85.02
G1 X91.60 Y84.87
G1 X91.65 Y84.76
G1 X91.65 Y84.04
G1 X91.81 Y83.89
G1 X92.11 Y84.15
G1 X92.88 Y84.15
G1 X93.09 Y84.25
G1 X93.40 Y84.25
G1 X94.32 Y85.23
G1 X94.68 Y85.23
G1 X95.20 Y85.07
G1 X95.61 Y84.87
G1 X95.92 Y84.82
G1 X95.97 Y84.87
G1 X95.81 Y85.02
G1 X95.87 Y85.07
G1 X96.07 Y85.02
G1 X96.43 Y85.38
G1 X96.33 Y85.74
G1 X96.28 Y86.51
G1 X96.17 Y86.77
G1 X96.12 Y87.23
G1 X96.17 Y86.77
G1 X96.28 Y86.51
G1 X96.38 Y85.48
G1 X96.89 Y84.92
G1 X97.20 Y84.40
G1 X96.89 Y84.92
G1 X96.48 Y85.33
G1 X96.38 Y85.33
G1 X95.97 Y84.97
G1 X96.07 Y84.82
G1 X96.02 Y84.76
G1 X95.97 Y84.82
G1 X95.87 Y84.76
G1 X96.02 Y84.46
G1 X96.43 Y83.94
G1 X95.76 Y84.87
G1 X95.61 Y84.87
G1 X95.20 Y85.07
G1 X94.68 Y85.23
G1 X94.32 Y85.23
G1 X93.40 Y84.25
G1 X93.09 Y84.25
G1 X92.88 Y84.15
G1 X92.11 Y84.15
G1 X91.86 Y83.89
G1 X92.01 Y83.48
G1 X92.27 Y83.07
G0 Z3.00

G0 X45.71 Y83.02
G1 Z0.00 F1200
G1 X45.55 Y83.17
G1 X45.30 Y83.79
G1 X45.04 Y84.04
G1 X44.99 Y85.02
G1 X44.47 Y85.43
G1 X44.32 Y85.43
G1 X44.06 Y85.59
G1 X43.24 Y85.84
G1 X42.83 Y85.84
G1 X42.73 Y85.74
G1 X42.57 Y85.28
G1 X42.47 Y85.18
G1 X42.42 Y84.56
G1 X42.31 Y84.46
G1 X42.31 Y84.15
G1 X42.26 Y84.10
G1 X42.26 Y83.89
G1 X42.37 Y83.74
G1 X42.26 Y83.89
G1 X41.96 Y83.63
G1 X41.49 Y83.69
G1 X41.18 Y83.79
G1 X40.67 Y84.10
G1 X40.52 Y84.25
G1 X41.18 Y83.79
G1 X41.96 Y83.63
G1 X42.26 Y83.89
G1 X42.31 Y84.46
G1 X42.26 Y84.51
G1 X41.60 Y84.56
G1 X41.24 Y84.87
G1 X41.08 Y85.07
G1 X40.82 Y85.90
G1 X40.52 Y86.20
G1 X40.82 Y85.90
G1 X41.13 Y85.90
G1 X41.65 Y85.69
G1 X42.01 Y85.64
G1 X42.47 Y85.23
G1 X42.57 Y85.28
G1 X42.62 Y85.54
G1 X42.83 Y85.84
G1 X43.24 Y85.84
G1 X44.06 Y85.59
G1 X44.32 Y85.43
G1 X44.58 Y85.38
G1 X44.88 Y85.07
G1 X45.04 Y85.18
G1 X45.04 Y85.54
G1 X45.09 Y85.59
G1 X44.99 Y85.12
G1 X44.99 Y84.56
G1 X45.04 Y84.51
G1 X45.04 Y84.04
G1 X45.19 Y83.89
G1 X45.50 Y84.15
G1 X46.27 Y84.15
G1 X46.48 Y84.25
G1 X46.79 Y84.25
G1 X47.71 Y85.23
G1 X48.07 Y85.23
G1 X48.28 Y85.12
G1 X48.43 Y85.12
G1 X48.84 Y84.97
G1 X49.15 Y84.76
G1 X49.97 Y83.79
G1 X50.07 Y83.53
G1 X50.02 Y83.48
G1 X49.82 Y83.48
G1 X50.07 Y83.53
G1 X49.97 Y83.79
G1 X49.15 Y84.76
G1 X48.94 Y84.92
G1 X48.43 Y85.12
G1 X48.28 Y85.12
G1 X48.07 Y85.23
G1 X47.71 Y85.23
G1 X46.79 Y84.25
G1 X46.48 Y84.25
G1 X46.27 Y84.15
G1 X45.50 Y84.15
G1 X45.24 Y83.89
G1 X45.40 Y83.48
G1 X45.66 Y83.07
G0 Z3.00

G0 X24.33 Y82.97
G1 Z0.00 F1200
G1 X23.76 Y83.33
G1 X22.99 Y83.43
G1 X22.43 Y83.63
G1 X22.01 Y83.89
G1 X21.91 Y83.89
G1 X21.35 Y84.46
G1 X21.35 Y84.87
G1 X21.60 Y85.33
G1 X21.76 Y85.48
G1 X22.37 Y85.69
G1 X22.63 Y85.90
G1 X23.56 Y85.95
G1 X23.61 Y85.90
G1 X24.22 Y85.84
G1 X24.74 Y85.69
G1 X25.30 Y85.38
G1 X25.72 Y85.33
G1 X25.97 Y85.12
G1 X26.13 Y85.18
G1 X26.13 Y85.54
G1 X26.18 Y85.59
G1 X26.13 Y85.54
G1 X26.13 Y85.18
G1 X26.02 Y85.02
G1 X26.13 Y84.51
G1 X26.13 Y84.04
G1 X26.28 Y83.89
G1 X26.59 Y84.15
G1 X27.36 Y84.15
G1 X27.57 Y84.25
G1 X27.87 Y84.25
G1 X28.80 Y85.23
G1 X29.16 Y85.23
G1 X29.36 Y85.12
G1 X29.52 Y85.12
G1 X29.93 Y84.97
G1 X30.24 Y84.76
G1 X30.91 Y83.94
G1 X30.49 Y84.51
G1 X30.03 Y84.92
G1 X29.16 Y85.23
G1 X28.80 Y85.23
G1 X27.87 Y84.25
G1 X27.57 Y84.25
G1 X27.36 Y84.15
G1 X26.59 Y84.15
G1 X26.33 Y83.84
G1 X26.64 Y83.17
G1 X26.79 Y83.02
G1 X26.64 Y83.17
G1 X26.38 Y83.79
G1 X26.13 Y84.04
G1 X26.07 Y84.97
G1 X25.82 Y85.28
G1 X25.30 Y85.38
G1 X24.74 Y85.69
G1 X24.22 Y85.84
G1 X23.61 Y85.90
G1 X23.56 Y85.95
G1 X22.63 Y85.90
G1 X22.53 Y85.79
G1 X22.53 Y85.69
G1 X22.73 Y85.48
G1 X22.89 Y85.07
G1 X23.76 Y84.15
G1 X23.76 Y83.99
G1 X23.92 Y83.63
G1 X23.92 Y83.53
G1 X23.76 Y83.33
G1 X24.28 Y83.02
G0 Z3.00

G0 X90.57 Y82.61
G1 Z0.00 F1200
G1 X90.57 Y82.86
G1 X90.47 Y83.02
G1 X89.96 Y83.02
G1 X89.65 Y83.38
G1 X89.49 Y83.74
G1 X89.39 Y83.84
G1 X89.08 Y83.94
G1 X88.46 Y84.40
G1 X88.05 Y84.87
G1 X87.85 Y85.23
G1 X87.90 Y85.84
G1 X88.05 Y86.10
G1 X88.67 Y86.05
G1 X89.29 Y85.64
G1 X89.80 Y85.07
G1 X89.96 Y84.76
G1 X90.01 Y84.15
G1 X89.75 Y83.89
G1 X89.80 Y83.84
G1 X90.21 Y83.84
G1 X90.52 Y83.94
G1 X90.21 Y83.84
G1 X89.60 Y83.89
G1 X89.44 Y83.79
G1 X89.80 Y83.17
G1 X89.96 Y83.02
G1 X90.47 Y83.02
G1 X90.57 Y82.86
G1 X90.57 Y82.66
G0 Z3.00

G0 X39.85 Y82.40
G1 Z0.00 F1200
G1 X39.59 Y83.22
G1 X39.39 Y83.63
G1 X39.44 Y83.89
G1 X39.39 Y83.94
G1 X39.39 Y84.35
G1 X39.33 Y84.40
G1 X39.33 Y84.71
G1 X39.18 Y85.48
G1 X39.03 Y85.79
G1 X38.87 Y85.90
G1 X38.41 Y86.05
G1 X38.20 Y86.05
G1 X38.10 Y85.90
G1 X38.10 Y84.71
G1 X38.15 Y84.66
G1 X38.20 Y83.79
G1 X38.15 Y84.66
G1 X38.10 Y84.71
G1 X38.10 Y85.90
G1 X38.15 Y85.95
G1 X38.10 Y86.25
G1 X38.15 Y86.05
G1 X38.41 Y86.05
G1 X38.97 Y85.84
G1 X39.23 Y85.28
G1 X39.23 Y85.02
G1 X39.39 Y84.35
G1 X39.39 Y83.94
G1 X39.44 Y83.89
G1 X39.39 Y83.63
G1 X39.59 Y83.22
G1 X39.85 Y82.45
G0 Z3.00

G0 X16.62 Y82.40
G1 Z0.00 F1200
G1 X16.36 Y83.22
G1 X16.16 Y83.63
G1 X16.21 Y83.89
G1 X16.16 Y83.94
G1 X16.16 Y84.35
G1 X16.10 Y84.40
G1 X16.10 Y84.71
G1 X15.95 Y85.48
G1 X15.80 Y85.79
G1 X15.64 Y85.90
G1 X15.18 Y86.05
G1 X14.97 Y86.05
G1 X14.87 Y85.90
G1 X14.87 Y84.71
G1 X14.92 Y84.66
G1 X14.97 Y83.79
G1 X14.92 Y84.66
G1 X14.87 Y84.71
G1 X14.87 Y85.90
G1 X14.92 Y85.95
G1 X14.87 Y86.25
G1 X14.92 Y86.05
G1 X15.18 Y86.05
G1 X15.75 Y85.84
G1 X16.00 Y85.28
G1 X16.00 Y85.02
G1 X16.16 Y84.35
G1 X16.16 Y83.94
G1 X16.21 Y83.89
G1 X16.16 Y83.63
G1 X16.36 Y83.22
G1 X16.62 Y82.45
G0 Z3.00

G0 X19.91 Y82.25
G1 Z0.00 F1200
G1 X19.96 Y82.76
G1 X20.01 Y82.81
G1 X20.01 Y85.38
G1 X19.86 Y85.54
G1 X19.03 Y85.54
G1 X18.37 Y84.56
G1 X18.06 Y84.25
G1 X17.85 Y84.20
G1 X17.03 Y84.20
G1 X16.93 Y84.25
G1 X17.03 Y84.20
G1 X18.06 Y84.25
G1 X18.37 Y84.56
G1 X19.03 Y85.54
G1 X19.86 Y85.54
G1 X20.01 Y85.69
G1 X20.06 Y88.77
G1 X19.70 Y89.80
G1 X20.06 Y88.77
G1 X20.01 Y85.69
G1 X19.91 Y85.59
G1 X19.91 Y85.48
G1 X20.01 Y85.38
G1 X20.01 Y82.81
G1 X19.91 Y82.30
G0 Z3.00

G0 X70.53 Y81.68
G1 Z0.00 F1200
G1 X70.07 Y81.94
G1 X69.09 Y82.25
G1 X68.37 Y82.35
G1 X68.11 Y82.45
G1 X67.70 Y82.45
G1 X67.50 Y82.55
G1 X67.29 Y82.55
G1 X67.19 Y82.40
G1 X67.24 Y82.55
G1 X66.78 Y82.97
G1 X66.57 Y82.97
G1 X66.26 Y83.12
G1 X65.75 Y83.22
G1 X65.39 Y83.38
G1 X64.41 Y83.48
G1 X64.36 Y83.53
G1 X62.82 Y83.43
G1 X62.77 Y83.38
G1 X62.77 Y82.76
G1 X62.87 Y82.45
G1 X62.82 Y82.35
G1 X62.87 Y82.45
G1 X62.77 Y82.76
G1 X62.77 Y83.43
G1 X62.72 Y83.48
G1 X62.05 Y83.53
G1 X61.59 Y83.69
G1 X62.36 Y83.48
G1 X62.72 Y83.48
G1 X62.77 Y83.43
G1 X62.97 Y83.48
G1 X62.67 Y83.79
G1 X62.67 Y84.61
G1 X62.61 Y84.66
G1 X62.56 Y86.20
G1 X62.67 Y86.61
G1 X62.82 Y86.87
G1 X62.61 Y86.46
G1 X62.56 Y85.79
G1 X62.61 Y85.74
G1 X62.67 Y83.79
G1 X62.97 Y83.48
G1 X64.16 Y83.48
G1 X64.36 Y83.53
G1 X64.41 Y83.48
G1 X65.39 Y83.38
G1 X65.75 Y83.22
G1 X66.26 Y83.12
G1 X66.57 Y82.97
G1 X66.78 Y82.97
G1 X67.24 Y82.55
G1 X67.50 Y82.61
G1 X67.50 Y83.79
G1 X67.39 Y83.99
G1 X67.29 Y84.61
G1 X67.55 Y85.07
G1 X67.55 Y85.18
G1 X68.06 Y85.69
G1 X68.37 Y85.69
G1 X68.78 Y85.59
G1 X69.71 Y85.23
G1 X69.96 Y85.48
G1 X70.58 Y85.69
G1 X70.84 Y85.90
G1 X71.09 Y85.90
G1 X71.15 Y85.95
G1 X71.76 Y85.95
G1 X71.81 Y85.90
G1 X72.43 Y85.84
G1 X72.94 Y85.69
G1 X73.36 Y85.48
G1 X73.66 Y85.48
G1 X73.97 Y85.38
G1 X74.07 Y85.43
G1 X74.07 Y85.69
G1 X74.18 Y85.95
G1 X74.13 Y86.25
G1 X74.18 Y86.05
G1 X74.43 Y86.05
G1 X75.00 Y85.84
G1 X75.26 Y85.28
G1 X75.26 Y85.02
G1 X75.41 Y84.35
G1 X75.41 Y83.94
G1 X75.46 Y83.89
G1 X75.41 Y83.63
G1 X75.62 Y83.22
G1 X75.87 Y82.40
G1 X75.62 Y83.22
G1 X75.41 Y83.63
G1 X75.46 Y83.89
G1 X75.41 Y83.94
G1 X75.41 Y84.35
G1 X75.36 Y84.40
G1 X75.36 Y84.71
G1 X75.21 Y85.48
G1 X75.05 Y85.79
G1 X74.90 Y85.90
G1 X74.43 Y86.05
G1 X74.23 Y86.05
G1 X74.13 Y85.90
G1 X74.07 Y85.33
G1 X74.13 Y85.28
G1 X74.23 Y83.79
G1 X74.13 Y85.28
G1 X74.02 Y85.38
G1 X73.66 Y85.48
G1 X73.36 Y85.48
G1 X72.79 Y85.74
G1 X71.76 Y85.95
G1 X71.15 Y85.95
G1 X71.09 Y85.90
G1 X70.84 Y85.90
G1 X70.73 Y85.79
G1 X70.73 Y85.69
G1 X70.94 Y85.48
G1 X71.09 Y85.07
G1 X71.92 Y84.25
G1 X72.12 Y83.53
G1 X71.97 Y83.33
G1 X72.53 Y82.97
G1 X71.97 Y83.33
G1 X71.20 Y83.43
G1 X70.12 Y83.89
G1 X69.55 Y84.46
G1 X69.60 Y85.23
G1 X69.50 Y85.33
G1 X69.35 Y85.33
G1 X69.09 Y85.48
G1 X68.37 Y85.69
G1 X68.06 Y85.69
G1 X67.91 Y85.59
G1 X67.55 Y85.18
G1 X67.55 Y85.07
G1 X67.29 Y84.61
G1 X67.39 Y83.99
G1 X67.50 Y83.79
G1 X67.50 Y82.55
G1 X67.70 Y82.45
G1 X68.11 Y82.45
G1 X68.37 Y82.35
G1 X69.30 Y82.19
G1 X69.45 Y82.09
G1 X70.07 Y81.94
G1 X70.48 Y81.73
G0 Z3.00

G0 X15.03 Y81.68
G1 Z0.00 F1200
G1 X14.36 Y82.25
G1 X13.12 Y82.97
G1 X12.56 Y83.17
G1 X11.79 Y83.22
G1 X11.27 Y83.38
G1 X10.76 Y83.43
G1 X10.25 Y83.63
G1 X10.04 Y83.84
G1 X10.04 Y84.10
G1 X10.19 Y84.56
G1 X10.91 Y85.28
G1 X10.66 Y85.54
G1 X9.89 Y85.84
G1 X9.48 Y86.15
G1 X9.89 Y85.84
G1 X10.66 Y85.54
G1 X10.91 Y85.28
G1 X11.89 Y85.23
G1 X11.99 Y85.18
G1 X12.10 Y85.28
G1 X13.07 Y85.38
G1 X13.43 Y85.48
G1 X13.64 Y85.64
G1 X13.64 Y86.00
G1 X13.54 Y86.41
G1 X13.07 Y87.03
G1 X12.71 Y87.33
G1 X12.25 Y87.49
G1 X11.22 Y87.59
G1 X10.81 Y87.44
G1 X10.76 Y87.49
G1 X10.50 Y87.49
G1 X10.35 Y87.59
G1 X10.14 Y87.59
G1 X9.84 Y87.75
G1 X10.14 Y87.59
G1 X10.35 Y87.59
G1 X10.50 Y87.49
G1 X10.76 Y87.49
G1 X10.81 Y87.44
G1 X11.22 Y87.59
G1 X11.33 Y87.54
G1 X11.58 Y87.59
G1 X11.63 Y87.54
G1 X12.46 Y87.44
G1 X12.87 Y87.23
G1 X13.38 Y86.67
G1 X13.59 Y86.25
G1 X13.64 Y85.64
G1 X13.43 Y85.48
G1 X13.07 Y85.38
G1 X12.10 Y85.28
G1 X12.04 Y85.12
G1 X12.40 Y84.51
G1 X12.76 Y84.15
G1 X12.87 Y83.74
G1 X12.87 Y83.33
G1 X12.71 Y83.12
G1 X13.90 Y82.55
G1 X14.97 Y81.73
G0 Z3.00

G0 X71.61 Y81.63
G1 Z0.00 F1200
G1 X71.20 Y81.89
G1 X71.35 Y81.84
G1 X71.51 Y81.68
G1 X71.71 Y81.63
G1 X71.87 Y81.68
G1 X72.22 Y82.09
G1 X72.33 Y82.09
G1 X72.22 Y82.09
G1 X71.87 Y81.68
G1 X71.66 Y81.63
G0 Z3.00

G0 X42.01 Y81.63
G1 Z0.00 F1200
G1 X41.96 Y81.68
G1 X41.96 Y81.94
G1 X41.54 Y82.50
G1 X41.34 Y82.71
G1 X41.96 Y81.94
G1 X41.96 Y81.68
G0 Z3.00

G0 X36.20 Y81.63
G1 Z0.00 F1200
G1 X36.15 Y81.68
G1 X36.20 Y81.94
G1 X36.20 Y83.79
G1 X36.30 Y83.94
G1 X36.15 Y84.04
G1 X35.94 Y84.04
G1 X35.79 Y84.20
G1 X35.33 Y84.20
G1 X35.27 Y84.25
G1 X34.97 Y84.25
G1 X34.19 Y84.40
G1 X33.94 Y84.56
G1 X33.68 Y84.61
G1 X33.37 Y84.92
G1 X33.48 Y85.48
G1 X33.68 Y85.64
G1 X34.04 Y85.74
G1 X36.20 Y85.69
G1 X36.25 Y85.74
G1 X36.20 Y85.79
G1 X36.25 Y87.75
G1 X35.94 Y87.85
G1 X35.69 Y87.85
G1 X35.63 Y87.80
G1 X34.97 Y87.80
G1 X34.91 Y87.85
G1 X34.09 Y87.80
G1 X33.99 Y87.85
G1 X33.94 Y87.80
G1 X33.06 Y87.75
G1 X32.24 Y87.54
G1 X33.06 Y87.75
G1 X33.48 Y87.75
G1 X33.99 Y87.85
G1 X34.09 Y87.80
G1 X34.55 Y87.80
G1 X34.61 Y87.85
G1 X34.91 Y87.85
G1 X34.97 Y87.80
G1 X35.94 Y87.85
G1 X36.20 Y87.80
G1 X36.25 Y87.85
G1 X36.25 Y88.93
G1 X36.30 Y88.98
G1 X36.25 Y89.96
G1 X36.25 Y89.70
G1 X36.30 Y89.65
G1 X36.25 Y89.49
G1 X36.30 Y89.29
G1 X36.25 Y87.85
G1 X36.30 Y87.80
G1 X38.15 Y87.80
G1 X39.18 Y87.59
G1 X39.39 Y87.44
G1 X39.75 Y87.39
G1 X39.80 Y87.33
G1 X39.59 Y87.44
G1 X39.39 Y87.44
G1 X39.18 Y87.59
G1 X38.15 Y87.80
G1 X36.30 Y87.80
G1 X36.25 Y87.75
G1 X36.25 Y86.46
G1 X36.20 Y86.41
G1 X36.25 Y84.66
G1 X35.79 Y84.20
G1 X35.94 Y84.04
G1 X36.15 Y84.04
G1 X36.40 Y83.89
G1 X37.28 Y83.69
G1 X37.74 Y83.43
G1 X37.28 Y83.69
G1 X36.35 Y83.94
G1 X36.20 Y83.79
G1 X36.20 Y81.94
G1 X36.15 Y81.68
G0 Z3.00

G0 X23.40 Y81.63
G1 Z0.00 F1200
G1 X22.99 Y81.89
G1 X23.15 Y81.84
G1 X23.30 Y81.68
G1 X23.51 Y81.63
G1 X23.66 Y81.68
G1 X24.02 Y82.09
G1 X24.12 Y82.09
G1 X24.02 Y82.09
G1 X23.66 Y81.68
G1 X23.45 Y81.63
G0 Z3.00

G0 X140.68 Y81.58
G1 Z0.00 F1200
G1 X140.63 Y81.84
G1 X140.01 Y82.55
G1 X140.63 Y81.84
G1 X140.63 Y81.63
G0 Z3.00

G0 X85.79 Y77.57
G1 Z0.00 F1200
G1 X84.92 Y77.98
G1 X84.82 Y78.08
G1 X84.71 Y78.08
G1 X83.89 Y78.60
G1 X83.43 Y79.01
G1 X83.22 Y79.11
G1 X82.19 Y80.14
G1 X81.73 Y80.81
G1 X81.63 Y81.48
G1 X81.73 Y81.63
G1 X82.04 Y81.73
G1 X84.97 Y81.78
G1 X85.02 Y81.84
G1 X86.05 Y81.89
G1 X86.31 Y82.09
G1 X86.41 Y82.55
G1 X86.36 Y82.91
G1 X86.15 Y83.43
G1 X85.74 Y83.89
G1 X85.12 Y84.30
G1 X84.04 Y84.82
G1 X82.86 Y85.48
G1 X82.76 Y85.48
G1 X80.70 Y86.67
G1 X79.21 Y86.67
G1 X79.16 Y86.61
G1 X78.85 Y86.61
G1 X79.16 Y86.61
G1 X79.21 Y86.67
G1 X80.70 Y86.67
G1 X82.76 Y85.48
G1 X82.86 Y85.48
G1 X84.04 Y84.82
G1 X85.12 Y84.30
G1 X85.74 Y83.89
G1 X86.15 Y83.43
G1 X86.36 Y82.91
G1 X86.41 Y82.55
G1 X86.31 Y82.09
G1 X86.05 Y81.89
G1 X85.02 Y81.84
G1 X84.97 Y81.78
G1 X82.04 Y81.73
G1 X81.73 Y81.63
G1 X81.63 Y81.48
G1 X81.73 Y80.81
G1 X82.19 Y80.14
G1 X83.22 Y79.11
G1 X83.43 Y79.01
G1 X83.89 Y78.60
G1 X84.71 Y78.08
G1 X84.82 Y78.08
G1 X84.92 Y77.98
G1 X85.79 Y77.57
G1 X87.08 Y77.72
G1 X87.85 Y77.93
G1 X87.08 Y77.72
G1 X85.84 Y77.57
G0 Z3.00

G0 X7.88 Y75.98
G1 Z0.00 F1200
G1 X8.29 Y76.75
G1 X8.29 Y76.90
G1 X8.45 Y77.16
G1 X8.45 Y77.31
G1 X8.60 Y77.67
G1 X8.55 Y77.93
G1 X8.60 Y78.08
G1 X8.55 Y78.24
G1 X8.55 Y79.27
G1 X8.50 Y79.32
G1 X8.50 Y80.65
G1 X8.45 Y80.70
G1 X8.50 Y81.17
G1 X8.45 Y81.22
G1 X8.40 Y84.71
G1 X8.34 Y84.92
G1 X7.42 Y85.84
G1 X7.21 Y85.74
G1 X6.96 Y85.38
G1 X6.91 Y85.18
G1 X5.88 Y83.12
G1 X4.70 Y80.34
G1 X4.59 Y80.19
G1 X4.34 Y80.04
G1 X4.18 Y79.16
G1 X3.93 Y78.60
G1 X3.93 Y77.52
G1 X3.93 Y78.60
G1 X4.18 Y79.16
G1 X4.34 Y80.09
G1 X3.62 Y80.81
G1 X3.57 Y84.61
G1 X3.51 Y84.66
G1 X3.51 Y85.38
G1 X3.57 Y85.43
G1 X3.51 Y85.64
G1 X3.51 Y87.64
G1 X3.67 Y88.00
G1 X3.67 Y88.21
G1 X3.82 Y88.67
G1 X3.67 Y88.21
G1 X3.67 Y88.00
G1 X3.51 Y87.64
G1 X3.51 Y85.64
G1 X3.57 Y85.59
G1 X3.51 Y84.66
G1 X3.57 Y84.61
G1 X3.62 Y80.81
G1 X4.34 Y80.09
G1 X4.64 Y80.24
G1 X5.88 Y83.12
G1 X6.91 Y85.18
G1 X6.91 Y85.28
G1 X7.11 Y85.64
G1 X7.37 Y85.79
G1 X7.47 Y85.95
G1 X7.47 Y86.56
G1 X7.27 Y87.28
G1 X7.47 Y86.56
G1 X7.47 Y85.95
G1 X7.42 Y85.84
G1 X8.34 Y84.92
G1 X8.40 Y84.71
G1 X8.40 Y83.12
G1 X8.45 Y83.07
G1 X8.45 Y81.22
G1 X8.50 Y81.17
G1 X8.45 Y80.70
G1 X8.50 Y80.65
G1 X8.50 Y79.32
G1 X8.55 Y79.27
G1 X8.55 Y78.24
G1 X8.60 Y78.19
G1 X8.55 Y77.93
G1 X8.60 Y77.67
G1 X8.45 Y77.31
G1 X8.45 Y77.16
G1 X8.29 Y76.90
G1 X8.29 Y76.75
G1 X8.14 Y76.54
G1 X7.93 Y76.03
G0 Z3.00

G0 X107.58 Y75.82
G1 Z0.00 F1200
G1 X107.27 Y76.59
G1 X107.12 Y77.42
G1 X107.12 Y78.24
G1 X107.07 Y78.29
G1 X106.97 Y78.24
G1 X106.19 Y78.24
G1 X106.14 Y78.29
G1 X105.94 Y78.24
G1 X105.48 Y78.24
G1 X105.42 Y78.29
G1 X103.73 Y78.24
G1 X103.68 Y78.19
G1 X102.13 Y78.08
G1 X101.16 Y77.88
G1 X102.13 Y78.08
G1 X103.68 Y78.19
G1 X103.73 Y78.24
G1 X104.50 Y78.24
G1 X104.55 Y78.29
G1 X105.06 Y78.24
G1 X105.12 Y78.29
G1 X105.42 Y78.29
G1 X105.48 Y78.24
G1 X105.94 Y78.24
G1 X105.99 Y78.29
G1 X106.97 Y78.24
G1 X107.02 Y78.29
G1 X107.12 Y87.23
G1 X107.07 Y87.28
G1 X107.07 Y87.80
G1 X106.91 Y88.31
G1 X107.07 Y87.80
G1 X107.07 Y87.28
G1 X107.12 Y87.23
G1 X107.07 Y81.53
G1 X107.02 Y81.48
G1 X107.02 Y78.34
G1 X107.12 Y78.24
G1 X108.66 Y78.24
G1 X108.71 Y78.29
G1 X108.71 Y81.58
G1 X108.66 Y81.63
G1 X108.66 Y84.20
G1 X108.71 Y84.30
G1 X108.66 Y84.35
G1 X108.66 Y87.80
G1 X108.61 Y87.85
G1 X108.61 Y88.10
G1 X108.61 Y87.85
G1 X108.66 Y87.80
G1 X108.66 Y84.35
G1 X108.76 Y84.25
G1 X109.79 Y84.20
G1 X110.10 Y84.56
G1 X110.51 Y85.28
G1 X110.82 Y85.59
G1 X111.03 Y85.59
G1 X111.95 Y85.23
G1 X112.31 Y84.87
G1 X112.52 Y84.51
G1 X112.52 Y84.35
G1 X112.77 Y84.10
G1 X113.29 Y83.79
G1 X114.06 Y83.63
G1 X114.37 Y83.89
G1 X114.42 Y84.46
G1 X114.37 Y84.51
G1 X113.70 Y84.56
G1 X113.34 Y84.87
G1 X113.18 Y85.07
G1 X112.93 Y85.90
G1 X112.62 Y86.20
G1 X112.93 Y85.90
G1 X113.24 Y85.90
G1 X113.75 Y85.69
G1 X114.11 Y85.64
G1 X114.57 Y85.23
G1 X114.67 Y85.28
G1 X114.73 Y85.54
G1 X114.93 Y85.84
G1 X115.34 Y85.84
G1 X116.16 Y85.59
G1 X116.42 Y85.43
G1 X116.68 Y85.38
G1 X116.99 Y85.07
G1 X117.14 Y85.18
G1 X117.14 Y85.54
G1 X117.19 Y85.59
G1 X117.09 Y85.12
G1 X117.09 Y84.56
G1 X117.14 Y84.51
G1 X117.14 Y84.04
G1 X117.30 Y83.89
G1 X117.60 Y84.15
G1 X118.37 Y84.15
G1 X118.58 Y84.25
G1 X118.89 Y84.25
G1 X119.81 Y85.23
G1 X120.17 Y85.23
G1 X120.38 Y85.12
G1 X120.53 Y85.12
G1 X121.56 Y84.71
G1 X121.61 Y84.76
G1 X121.61 Y87.80
G1 X121.56 Y87.85
G1 X121.56 Y88.10
G1 X121.56 Y87.85
G1 X121.61 Y87.80
G1 X121.61 Y84.76
G1 X121.56 Y84.71
G1 X121.61 Y84.66
G1 X121.61 Y84.35
G1 X121.72 Y84.20
G1 X122.74 Y84.20
G1 X123.05 Y84.56
G1 X123.46 Y85.28
G1 X123.77 Y85.59
G1 X123.98 Y85.59
G1 X124.90 Y85.23
G1 X125.26 Y84.87
G1 X125.62 Y84.20
G1 X125.26 Y84.87
G1 X124.90 Y85.23
G1 X123.98 Y85.59
G1 X123.77 Y85.59
G1 X123.46 Y85.28
G1 X123.05 Y84.56
G1 X122.74 Y84.20
G1 X121.72 Y84.20
G1 X121.61 Y84.04
G1 X121.61 Y81.63
G1 X121.66 Y81.58
G1 X121.66 Y79.11
G1 X121.72 Y79.06
G1 X121.72 Y77.93
G1 X121.77 Y77.88
G1 X121.77 Y77.00
G1 X121.66 Y76.75
G1 X121.66 Y76.54
G1 X121.66 Y76.75
G1 X121.77 Y77.00
G1 X121.77 Y77.88
G1 X121.72 Y77.93
G1 X121.72 Y79.06
G1 X121.66 Y79.11
G1 X121.61 Y84.04
G1 X121.72 Y84.20
G1 X121.61 Y84.35
G1 X121.61 Y84.66
G1 X121.51 Y84.76
G1 X121.20 Y84.82
G1 X120.94 Y84.97
G1 X120.17 Y85.23
G1 X119.81 Y85.23
G1 X118.89 Y84.25
G1 X118.58 Y84.25
G1 X118.37 Y84.15
G1 X117.60 Y84.15
G1 X117.35 Y83.89
G1 X117.66 Y83.17
G1 X117.81 Y83.02
G1 X117.66 Y83.17
G1 X117.40 Y83.79
G1 X117.14 Y84.04
G1 X117.09 Y85.02
G1 X116.68 Y85.38
G1 X116.42 Y85.43
G1 X116.16 Y85.59
G1 X115.34 Y85.84
G1 X114.93 Y85.84
G1 X114.83 Y85.74
G1 X114.67 Y85.28
G1 X114.57 Y85.18
G1 X114.52 Y84.56
G1 X114.42 Y84.46
G1 X114.42 Y84.15
G1 X114.37 Y84.10
G1 X114.37 Y83.89
G1 X114.47 Y83.74
G1 X114.37 Y83.89
G1 X114.06 Y83.63
G1 X113.29 Y83.79
G1 X112.77 Y84.10
G1 X112.52 Y84.35
G1 X112.52 Y84.51
G1 X112.31 Y84.87
G1 X111.95 Y85.23
G1 X111.03 Y85.59
G1 X110.82 Y85.59
G1 X110.51 Y85.28
G1 X110.10 Y84.56
G1 X109.79 Y84.20
G1 X109.33 Y84.20
G1 X109.28 Y84.25
G1 X108.71 Y84.25
G1 X108.66 Y84.20
G1 X108.71 Y78.34
G1 X108.87 Y78.24
G1 X109.28 Y78.24
G1 X110.00 Y78.08
G1 X110.92 Y77.78
G1 X111.13 Y77.78
G1 X111.75 Y77.52
G1 X111.13 Y77.78
G1 X110.92 Y77.78
G1 X110.00 Y78.08
G1 X109.28 Y78.24
G1 X108.92 Y78.24
G1 X108.87 Y78.19
G1 X108.87 Y77.26
G1 X108.71 Y76.75
G1 X108.71 Y76.54
G1 X108.71 Y76.75
G1 X108.87 Y77.26
G1 X108.87 Y78.24
G1 X108.82 Y78.29
G1 X108.66 Y78.24
G1 X107.17 Y78.24
G1 X107.12 Y78.19
G1 X107.17 Y77.11
G1 X107.27 Y76.59
G1 X107.58 Y75.87
G0 Z3.00

G0 X60.97 Y75.82
G1 Z0.00 F1200
G1 X60.66 Y76.59
G1 X60.51 Y77.42
G1 X60.51 Y78.24
G1 X60.46 Y78.29
G1 X60.35 Y78.24
G1 X59.58 Y78.24
G1 X59.53 Y78.29
G1 X59.33 Y78.24
G1 X58.86 Y78.24
G1 X58.81 Y78.29
G1 X57.12 Y78.24
G1 X57.06 Y78.19
G1 X55.52 Y78.08
G1 X54.55 Y77.88
G1 X55.52 Y78.08
G1 X57.06 Y78.19
G1 X57.12 Y78.24
G1 X57.89 Y78.24
G1 X57.94 Y78.29
G1 X58.45 Y78.24
G1 X58.50 Y78.29
G1 X58.81 Y78.29
G1 X58.86 Y78.24
G1 X59.33 Y78.24
G1 X59.38 Y78.29
G1 X60.35 Y78.24
G1 X60.40 Y78.29
G1 X60.51 Y87.23
G1 X60.46 Y87.28
G1 X60.46 Y87.80
G1 X60.30 Y88.31
G1 X60.46 Y87.80
G1 X60.46 Y87.28
G1 X60.51 Y87.23
G1 X60.40 Y78.34
G1 X60.51 Y78.24
G1 X62.67 Y78.24
G1 X63.39 Y78.08
G1 X64.31 Y77.78
G1 X64.52 Y77.78
G1 X65.13 Y77.52
G1 X64.52 Y77.78
G1 X64.31 Y77.78
G1 X63.39 Y78.08
G1 X62.67 Y78.24
G1 X60.56 Y78.24
G1 X60.51 Y78.19
G1 X60.56 Y77.11
G1 X60.66 Y76.59
G1 X60.97 Y75.87
G0 Z3.00

G0 X133.43 Y75.36
G1 Z0.00 F1200
G1 X133.33 Y75.67
G1 X133.23 Y75.77
G1 X133.12 Y76.23
G1 X133.18 Y80.29
G1 X133.23 Y80.34
G1 X133.18 Y80.55
G1 X133.18 Y83.48
G1 X132.76 Y83.58
G1 X130.71 Y83.58
G1 X129.48 Y83.17
G1 X129.32 Y83.07
G1 X128.86 Y82.97
G1 X128.45 Y82.76
G1 X128.86 Y82.97
G1 X129.01 Y82.97
G1 X130.71 Y83.58
G1 X132.76 Y83.58
G1 X133.18 Y83.99
G1 X133.12 Y88.26
G1 X133.28 Y88.72
G1 X133.12 Y88.26
G1 X133.18 Y83.99
G1 X132.76 Y83.58
G1 X132.82 Y83.53
G1 X135.59 Y83.53
G1 X136.05 Y83.99
G1 X136.05 Y88.41
G1 X136.10 Y88.46
G1 X136.21 Y89.29
G1 X136.31 Y89.44
G1 X136.36 Y89.80
G1 X136.46 Y89.96
G1 X136.52 Y90.21
G1 X136.46 Y89.96
G1 X136.36 Y89.80
G1 X136.31 Y89.44
G1 X136.21 Y89.29
G1 X136.10 Y88.46
G1 X136.05 Y88.41
G1 X136.05 Y83.99
G1 X135.59 Y83.53
G1 X135.64 Y83.48
G1 X136.93 Y83.48
G1 X136.98 Y83.43
G1 X137.44 Y83.48
G1 X137.49 Y83.43
G1 X138.47 Y83.43
G1 X138.52 Y83.38
G1 X138.47 Y83.43
G1 X137.49 Y83.43
G1 X137.44 Y83.48
G1 X137.34 Y83.43
G1 X137.18 Y83.48
G1 X137.03 Y83.43
G1 X136.93 Y83.48
G1 X135.75 Y83.48
G1 X135.69 Y83.43
G1 X136.00 Y83.02
G1 X136.00 Y77.00
G1 X136.16 Y76.18
G1 X136.31 Y75.87
G1 X136.16 Y76.18
G1 X136.00 Y77.00
G1 X136.00 Y83.02
G1 X135.59 Y83.53
G1 X133.23 Y83.53
G1 X133.18 Y83.48
G1 X133.18 Y80.55
G1 X133.23 Y80.34
G1 X133.18 Y80.29
G1 X133.12 Y76.23
G1 X133.38 Y75.41
G0 Z3.00

G0 X46.12 Y68.78
G1 Z0.00 F1200
G1 X46.17 Y68.73
G1 X46.73 Y68.73
G1 X46.84 Y69.09
G1 X46.84 Y69.45
G1 X46.48 Y69.81
G1 X46.22 Y69.91
G1 X46.01 Y69.91
G1 X45.50 Y70.12
G1 X45.24 Y70.12
G1 X45.19 Y70.07
G1 X45.45 Y69.30
G1 X45.96 Y68.78
G1 X46.07 Y68.78
G0 Z3.00

G0 X23.61 Y67.60
G1 Z0.00 F1200
G1 X23.71 Y67.55
G1 X23.92 Y67.75
G1 X23.76 Y68.37
G1 X22.89 Y69.30
G1 X22.73 Y69.71
G1 X22.48 Y69.96
G1 X21.96 Y69.81
G1 X21.60 Y69.55
G1 X21.35 Y69.09
G1 X21.35 Y68.68
G1 X21.91 Y68.11
G1 X22.43 Y67.86
G1 X22.68 Y67.81
G1 X22.94 Y67.65
G1 X23.56 Y67.60
G0 Z3.00

G0 X12.56 Y67.39
G1 Z0.00 F1200
G1 X12.66 Y67.34
G1 X12.87 Y67.55
G1 X12.87 Y67.96
G1 X12.76 Y68.37
G1 X12.40 Y68.73
G1 X12.30 Y68.99
G1 X11.99 Y69.40
G1 X11.89 Y69.45
G1 X11.33 Y69.45
G1 X11.27 Y69.50
G1 X10.91 Y69.50
G1 X10.19 Y68.78
G1 X10.04 Y68.32
G1 X10.04 Y68.06
G1 X10.25 Y67.86
G1 X10.76 Y67.65
G1 X11.27 Y67.60
G1 X11.79 Y67.45
G1 X12.51 Y67.39
G0 Z3.00

G0 X24.33 Y67.19
G1 Z0.00 F1200
G1 X23.76 Y67.55
G1 X22.94 Y67.65
G1 X22.68 Y67.81
G1 X22.43 Y67.86
G1 X21.91 Y68.11
G1 X21.35 Y68.68
G1 X21.35 Y69.09
G1 X21.60 Y69.55
G1 X21.76 Y69.71
G1 X22.37 Y69.91
G1 X22.63 Y70.12
G1 X23.56 Y70.17
G1 X23.61 Y70.12
G1 X24.22 Y70.07
G1 X24.74 Y69.91
G1 X25.30 Y69.60
G1 X25.72 Y69.55
G1 X25.97 Y69.35
G1 X26.13 Y69.40
G1 X26.13 Y69.76
G1 X26.18 Y69.81
G1 X26.13 Y69.76
G1 X26.13 Y69.40
G1 X26.02 Y69.24
G1 X26.13 Y68.73
G1 X26.13 Y68.27
G1 X26.28 Y68.11
G1 X26.59 Y68.37
G1 X27.36 Y68.37
G1 X27.57 Y68.47
G1 X27.87 Y68.47
G1 X28.80 Y69.45
G1 X29.16 Y69.45
G1 X29.36 Y69.35
G1 X29.52 Y69.35
G1 X29.93 Y69.19
G1 X30.24 Y68.99
G1 X30.91 Y68.16
G1 X30.49 Y68.73
G1 X30.03 Y69.14
G1 X29.16 Y69.45
G1 X28.80 Y69.45
G1 X27.87 Y68.47
G1 X27.57 Y68.47
G1 X27.36 Y68.37
G1 X26.59 Y68.37
G1 X26.33 Y68.06
G1 X26.64 Y67.39
G1 X26.79 Y67.24
G1 X26.64 Y67.39
G1 X26.38 Y68.01
G1 X26.13 Y68.27
G1 X26.07 Y69.19
G1 X25.82 Y69.50
G1 X25.30 Y69.60
G1 X24.74 Y69.91
G1 X24.22 Y70.07
G1 X23.61 Y70.12
G1 X23.56 Y70.17
G1 X22.63 Y70.12
G1 X22.53 Y70.01
G1 X22.53 Y69.91
G1 X22.73 Y69.71
G1 X22.89 Y69.30
G1 X23.76 Y68.37
G1 X23.76 Y68.22
G1 X23.92 Y67.86
G1 X23.92 Y67.75
G1 X23.76 Y67.55
G1 X24.28 Y67.24
G0 Z3.00

G0 X67.60 Y66.62
G1 Z0.00 F1200
G1 X67.34 Y67.45
G1 X67.14 Y67.86
G1 X67.19 Y68.11
G1 X67.14 Y68.16
G1 X67.14 Y68.58
G1 X67.09 Y68.63
G1 X67.09 Y68.94
G1 X66.93 Y69.71
G1 X66.78 Y70.01
G1 X66.62 Y70.12
G1 X66.16 Y70.27
G1 X65.96 Y70.27
G1 X65.85 Y70.12
G1 X65.85 Y68.94
G1 X65.90 Y68.88
G1 X65.96 Y68.01
G1 X65.90 Y68.88
G1 X65.85 Y68.94
G1 X65.85 Y70.12
G1 X65.90 Y70.17
G1 X65.85 Y70.48
G1 X65.90 Y70.27
G1 X66.16 Y70.27
G1 X66.73 Y70.07
G1 X66.98 Y69.50
G1 X66.98 Y69.24
G1 X67.14 Y68.58
G1 X67.14 Y68.16
G1 X67.19 Y68.11
G1 X67.14 Y67.86
G1 X67.34 Y67.45
G1 X67.60 Y66.67
G0 Z3.00

G0 X16.62 Y66.62
G1 Z0.00 F1200
G1 X16.36 Y67.45
G1 X16.16 Y67.86
G1 X16.21 Y68.11
G1 X16.16 Y68.16
G1 X16.16 Y68.58
G1 X16.10 Y68.63
G1 X16.10 Y68.94
G1 X15.95 Y69.71
G1 X15.80 Y70.01
G1 X15.64 Y70.12
G1 X15.18 Y70.27
G1 X14.97 Y70.27
G1 X14.87 Y70.12
G1 X14.87 Y68.94
G1 X14.92 Y68.88
G1 X14.97 Y68.01
G1 X14.92 Y68.88
G1 X14.87 Y68.94
G1 X14.87 Y70.12
G1 X14.92 Y70.17
G1 X14.87 Y70.48
G1 X14.92 Y70.27
G1 X15.18 Y70.27
G1 X15.75 Y70.07
G1 X16.00 Y69.50
G1 X16.00 Y69.24
G1 X16.16 Y68.58
G1 X16.16 Y68.16
G1 X16.21 Y68.11
G1 X16.16 Y67.86
G1 X16.36 Y67.45
G1 X16.62 Y66.67
G0 Z3.00

G0 X19.91 Y66.47
G1 Z0.00 F1200
G1 X19.96 Y66.98
G1 X20.01 Y67.03
G1 X20.01 Y69.60
G1 X19.86 Y69.76
G1 X19.03 Y69.76
G1 X18.37 Y68.78
G1 X18.06 Y68.47
G1 X17.85 Y68.42
G1 X17.03 Y68.42
G1 X16.93 Y68.47
G1 X17.03 Y68.42
G1 X18.06 Y68.47
G1 X18.37 Y68.78
G1 X19.03 Y69.76
G1 X19.86 Y69.76
G1 X20.01 Y69.91
G1 X20.06 Y73.00
G1 X19.70 Y74.02
G1 X20.06 Y73.00
G1 X20.01 Y69.91
G1 X19.91 Y69.81
G1 X19.91 Y69.71
G1 X20.01 Y69.60
G1 X20.01 Y67.03
G1 X19.91 Y66.52
G0 Z3.00

G0 X15.03 Y65.90
G1 Z0.00 F1200
G1 X14.36 Y66.47
G1 X13.12 Y67.19
G1 X12.56 Y67.39
G1 X11.79 Y67.45
G1 X11.27 Y67.60
G1 X10.76 Y67.65
G1 X10.25 Y67.86
G1 X10.04 Y68.06
G1 X10.04 Y68.32
G1 X10.19 Y68.78
G1 X10.91 Y69.50
G1 X10.66 Y69.76
G1 X9.89 Y70.07
G1 X9.48 Y70.37
G1 X9.89 Y70.07
G1 X10.66 Y69.76
G1 X10.91 Y69.50
G1 X11.89 Y69.45
G1 X11.99 Y69.40
G1 X12.10 Y69.50
G1 X13.07 Y69.60
G1 X13.43 Y69.71
G1 X13.64 Y69.86
G1 X13.64 Y70.22
G1 X13.54 Y70.63
G1 X13.07 Y71.25
G1 X12.71 Y71.56
G1 X12.25 Y71.71
G1 X11.22 Y71.81
G1 X10.81 Y71.66
G1 X10.76 Y71.71
G1 X10.50 Y71.71
G1 X10.35 Y71.81
G1 X10.14 Y71.81
G1 X9.84 Y71.97
G1 X10.14 Y71.81
G1 X10.35 Y71.81
G1 X10.50 Y71.71
G1 X10.76 Y71.71
G1 X10.81 Y71.66
G1 X11.22 Y71.81
G1 X11.33 Y71.76
G1 X11.58 Y71.81
G1 X11.63 Y71.76
G1 X12.46 Y71.66
G1 X12.87 Y71.45
G1 X13.38 Y70.89
G1 X13.59 Y70.48
G1 X13.64 Y69.86
G1 X13.43 Y69.71
G1 X13.07 Y69.60
G1 X12.10 Y69.50
G1 X12.04 Y69.35
G1 X12.40 Y68.73
G1 X12.76 Y68.37
G1 X12.87 Y67.96
G1 X12.87 Y67.55
G1 X12.71 Y67.34
G1 X13.90 Y66.78
G1 X14.97 Y65.96
G0 Z3.00

G0 X23.40 Y65.85
G1 Z0.00 F1200
G1 X22.99 Y66.11
G1 X23.30 Y65.90
G1 X23.51 Y65.85
G1 X23.66 Y65.90
G1 X24.02 Y66.31
G1 X24.12 Y66.31
G1 X24.02 Y66.31
G1 X23.66 Y65.90
G1 X23.45 Y65.85
G0 Z3.00

G0 X24.12 Y64.77
G1 Z0.00 F1200
G1 X24.17 Y64.98
G1 X23.97 Y65.13
G1 X23.81 Y65.18
G1 X23.56 Y65.03
G1 X23.30 Y65.03
G1 X23.04 Y65.18
G1 X23.09 Y65.34
G1 X23.04 Y65.18
G1 X23.30 Y65.03
G1 X23.56 Y65.03
G1 X23.81 Y65.18
G1 X24.17 Y64.98
G1 X24.12 Y64.82
G0 Z3.00

G0 X39.44 Y63.95
G1 Z0.00 F1200
G1 X39.49 Y63.90
G1 X40.88 Y63.90
G1 X41.03 Y64.16
G1 X41.18 Y65.03
G1 X40.62 Y65.70
G1 X40.52 Y66.01
G1 X40.41 Y66.11
G1 X39.95 Y66.26
G1 X39.49 Y66.73
G1 X37.43 Y68.37
G1 X36.76 Y68.63
G1 X36.04 Y67.91
G1 X36.10 Y64.82
G1 X35.94 Y64.67
G1 X36.15 Y64.46
G1 X36.35 Y64.41
G1 X36.76 Y64.41
G1 X37.23 Y64.26
G1 X37.84 Y64.21
G1 X38.36 Y64.05
G1 X39.39 Y63.95
G0 Z3.00

G0 X63.28 Y62.61
G1 Z0.00 F1200
G1 X63.33 Y62.56
G1 X64.31 Y62.56
G1 X64.62 Y62.77
G1 X64.93 Y64.00
G1 X64.88 Y64.82
G1 X64.21 Y65.90
G1 X63.13 Y67.34
G1 X61.38 Y69.35
G1 X60.87 Y69.55
G1 X60.04 Y68.78
G1 X59.89 Y63.49
G1 X59.94 Y63.44
G1 X60.56 Y63.39
G1 X60.87 Y63.23
G1 X62.67 Y62.67
G1 X63.23 Y62.61
G0 Z3.00

G0 X59.48 Y60.87
G1 Z0.00 F1200
G1 X59.63 Y61.12
G1 X59.63 Y61.28
G1 X59.74 Y61.38
G1 X59.84 Y61.79
G1 X59.84 Y62.10
G1 X59.89 Y62.15
G1 X59.89 Y63.75
G1 X59.79 Y63.85
G1 X59.12 Y63.95
G1 X57.48 Y64.72
G1 X57.17 Y64.93
G1 X56.70 Y65.44
G1 X57.17 Y64.93
G1 X57.99 Y64.46
G1 X58.09 Y64.46
G1 X59.27 Y63.90
G1 X59.53 Y63.90
G1 X59.84 Y63.80
G1 X59.94 Y63.85
G1 X60.04 Y68.78
G1 X60.82 Y69.60
G1 X60.66 Y70.07
G1 X59.63 Y71.09
G1 X59.17 Y71.45
G1 X58.40 Y71.61
G1 X58.19 Y71.71
G1 X57.17 Y71.87
G1 X58.19 Y71.71
G1 X58.40 Y71.61
G1 X59.17 Y71.45
G1 X59.63 Y71.09
G1 X60.66 Y70.07
G1 X60.76 Y69.66
G1 X60.92 Y69.50
G1 X61.38 Y69.35
G1 X63.13 Y67.34
G1 X64.52 Y65.44
G1 X64.88 Y64.82
G1 X64.93 Y64.62
G1 X64.93 Y64.00
G1 X64.72 Y63.03
G1 X64.62 Y62.77
G1 X64.31 Y62.56
G1 X62.92 Y62.61
G1 X62.10 Y62.82
G1 X60.56 Y63.39
G1 X59.94 Y63.44
G1 X59.89 Y63.39
G1 X59.84 Y61.79
G1 X59.74 Y61.38
G1 X59.63 Y61.28
G1 X59.63 Y61.12
G1 X59.48 Y60.92
G0 Z3.00

G0 X36.20 Y60.46
G1 Z0.00 F1200
G1 X35.94 Y61.28
G1 X35.99 Y62.56
G1 X36.04 Y62.61
G1 X36.04 Y64.36
G1 X36.15 Y64.46
G1 X35.94 Y64.67
G1 X35.22 Y64.72
G1 X34.35 Y64.98
G1 X33.48 Y65.60
G1 X34.25 Y65.03
G1 X34.81 Y64.82
G1 X35.58 Y64.67
G1 X35.94 Y64.67
G1 X36.10 Y64.82
G1 X36.04 Y67.91
G1 X36.76 Y68.63
G1 X36.71 Y68.78
G1 X36.56 Y68.99
G1 X35.74 Y69.55
G1 X35.27 Y69.55
G1 X34.76 Y69.66
G1 X33.73 Y69.66
G1 X34.76 Y69.66
G1 X35.27 Y69.55
G1 X35.74 Y69.55
G1 X35.89 Y69.71
G1 X35.89 Y69.86
G1 X35.99 Y69.96
G1 X36.04 Y70.17
G1 X35.99 Y72.12
G1 X36.04 Y72.17
G1 X36.04 Y72.74
G1 X36.10 Y72.79
G1 X36.20 Y73.77
G1 X36.10 Y72.79
G1 X36.04 Y72.74
G1 X36.04 Y72.17
G1 X35.99 Y72.12
G1 X36.04 Y70.17
G1 X35.79 Y69.50
G1 X36.56 Y68.99
G1 X36.82 Y68.58
G1 X36.97 Y68.58
G1 X37.43 Y68.37
G1 X39.49 Y66.73
G1 X39.95 Y66.26
G1 X40.16 Y66.16
G1 X40.46 Y66.11
G1 X40.93 Y66.57
G1 X40.93 Y68.42
G1 X40.98 Y68.52
G1 X40.93 Y68.58
G1 X40.93 Y72.02
G1 X40.88 Y72.07
G1 X40.88 Y72.33
G1 X40.88 Y72.07
G1 X40.93 Y72.02
G1 X40.93 Y68.58
G1 X41.03 Y68.47
G1 X42.06 Y68.42
G1 X42.37 Y68.78
G1 X42.78 Y69.50
G1 X43.09 Y69.81
G1 X43.29 Y69.81
G1 X44.22 Y69.45
G1 X44.58 Y69.09
G1 X44.78 Y68.73
G1 X44.78 Y68.58
G1 X45.04 Y68.32
G1 X45.55 Y68.01
G1 X46.32 Y67.86
G1 X46.63 Y68.11
G1 X46.68 Y68.68
G1 X46.63 Y68.73
G1 X45.96 Y68.78
G1 X45.60 Y69.09
G1 X45.45 Y69.30
G1 X45.19 Y70.12
G1 X44.88 Y70.43
G1 X45.19 Y70.12
G1 X45.50 Y70.12
G1 X46.01 Y69.91
G1 X46.37 Y69.86
G1 X46.84 Y69.45
G1 X46.94 Y69.50
G1 X46.99 Y69.76
G1 X47.20 Y70.07
G1 X47.61 Y70.07
G1 X48.79 Y69.66
G1 X48.94 Y69.66
G1 X49.25 Y69.35
G1 X49.36 Y69.40
G1 X49.36 Y69.76
G1 X49.41 Y69.81
G1 X49.36 Y69.76
G1 X49.30 Y69.04
G1 X49.36 Y68.99
G1 X49.36 Y68.27
G1 X49.51 Y68.11
G1 X49.82 Y68.37
G1 X50.59 Y68.37
G1 X50.79 Y68.47
G1 X51.10 Y68.47
G1 X52.03 Y69.45
G1 X52.39 Y69.45
G1 X53.26 Y69.14
G1 X53.72 Y68.73
G1 X54.13 Y68.16
G1 X53.72 Y68.73
G1 X53.26 Y69.14
G1 X52.39 Y69.45
G1 X52.03 Y69.45
G1 X51.10 Y68.47
G1 X50.79 Y68.47
G1 X50.59 Y68.37
G1 X49.82 Y68.37
G1 X49.56 Y68.11
G1 X49.87 Y67.39
G1 X50.02 Y67.24
G1 X49.87 Y67.39
G1 X49.61 Y68.01
G1 X49.36 Y68.27
G1 X49.30 Y69.30
G1 X48.94 Y69.66
G1 X48.79 Y69.66
G1 X47.61 Y70.07
G1 X47.20 Y70.07
G1 X47.09 Y69.96
G1 X46.94 Y69.50
G1 X46.84 Y69.40
G1 X46.79 Y68.78
G1 X46.68 Y68.68
G1 X46.68 Y68.37
G1 X46.63 Y68.32
G1 X46.63 Y68.11
G1 X46.73 Y67.96
G1 X46.63 Y68.11
G1 X46.32 Y67.86
G1 X46.17 Y67.86
G1 X45.55 Y68.01
G1 X45.04 Y68.32
G1 X44.78 Y68.58
G1 X44.78 Y68.73
G1 X44.58 Y69.09
G1 X44.22 Y69.45
G1 X43.29 Y69.81
G1 X43.09 Y69.81
G1 X42.78 Y69.50
G1 X42.37 Y68.78
G1 X42.06 Y68.42
G1 X41.60 Y68.42
G1 X41.54 Y68.47
G1 X40.98 Y68.47
G1 X40.93 Y68.42
G1 X40.93 Y66.57
G1 X40.46 Y66.06
G1 X40.62 Y65.70
G1 X41.18 Y65.03
G1 X41.13 Y64.57
G1 X40.93 Y63.95
G1 X40.98 Y63.85
G1 X40.98 Y63.33
G1 X41.03 Y63.28
G1 X41.03 Y62.15
G1 X41.08 Y62.10
G1 X41.08 Y61.23
G1 X40.98 Y60.97
G1 X40.98 Y60.76
G1 X40.98 Y60.97
G1 X41.08 Y61.23
G1 X41.08 Y62.10
G1 X41.03 Y62.15
G1 X41.03 Y63.28
G1 X40.98 Y63.33
G1 X40.98 Y63.85
G1 X40.93 Y63.90
G1 X39.03 Y63.95
G1 X38.97 Y64.00
G1 X38.10 Y64.10
G1 X37.84 Y64.21
G1 X37.23 Y64.26
G1 X36.76 Y64.41
G1 X36.15 Y64.46
G1 X36.04 Y64.36
G1 X36.04 Y62.61
G1 X35.99 Y62.56
G1 X35.94 Y61.28
G1 X36.20 Y60.51
G0 Z3.00

G0 X7.88 Y60.20
G1 Z0.00 F1200
G1 X8.29 Y60.97
G1 X8.29 Y61.12
G1 X8.45 Y61.38
G1 X8.45 Y61.54
G1 X8.60 Y61.90
G1 X8.55 Y62.15
G1 X8.60 Y62.31
G1 X8.55 Y62.46
G1 X8.55 Y63.49
G1 X8.50 Y63.54
G1 X8.50 Y64.88
G1 X8.45 Y64.93
G1 X8.50 Y65.39
G1 X8.45 Y65.44
G1 X8.40 Y68.94
G1 X8.34 Y69.14
G1 X7.42 Y70.07
G1 X7.21 Y69.96
G1 X6.96 Y69.60
G1 X6.91 Y69.40
G1 X5.88 Y67.34
G1 X4.70 Y64.57
G1 X4.59 Y64.41
G1 X4.34 Y64.26
G1 X4.18 Y63.39
G1 X3.93 Y62.82
G1 X3.93 Y61.74
G1 X3.93 Y62.82
G1 X4.18 Y63.39
G1 X4.34 Y64.31
G1 X3.62 Y65.03
G1 X3.57 Y68.83
G1 X3.51 Y68.88
G1 X3.51 Y69.60
G1 X3.57 Y69.66
G1 X3.51 Y69.86
G1 X3.51 Y71.87
G1 X3.67 Y72.22
G1 X3.67 Y72.43
G1 X3.82 Y72.89
G1 X3.67 Y72.43
G1 X3.67 Y72.22
G1 X3.51 Y71.87
G1 X3.51 Y69.86
G1 X3.57 Y69.81
G1 X3.51 Y68.88
G1 X3.57 Y68.83
G1 X3.62 Y65.03
G1 X4.34 Y64.31
G1 X4.64 Y64.46
G1 X5.88 Y67.34
G1 X6.91 Y69.40
G1 X6.91 Y69.50
G1 X7.11 Y69.86
G1 X7.37 Y70.01
G1 X7.47 Y70.17
G1 X7.47 Y70.79
G1 X7.27 Y71.51
G1 X7.47 Y70.79
G1 X7.47 Y70.17
G1 X7.42 Y70.07
G1 X8.34 Y69.14
G1 X8.40 Y68.94
G1 X8.40 Y67.34
G1 X8.45 Y67.29
G1 X8.45 Y65.44
G1 X8.50 Y65.39
G1 X8.45 Y64.93
G1 X8.50 Y64.88
G1 X8.50 Y63.54
G1 X8.55 Y63.49
G1 X8.55 Y62.46
G1 X8.60 Y62.41
G1 X8.55 Y62.15
G1 X8.60 Y61.90
G1 X8.45 Y61.54
G1 X8.45 Y61.38
G1 X8.29 Y61.12
G1 X8.29 Y60.97
G1 X8.14 Y60.76
G1 X7.93 Y60.25
G0 Z3.00

G0 X0 Y0 ; Tra ve goc 0
M30 ; Ket thuc