; G-Code 1 nét cho: 'Nguyễn Phan Du'
G21 ; mm
G90 ; Absolute
G0 Z3.00

G0 X3.85 Y19.88
G1 Z0.00 F1200
G1 X3.56 Y19.60
G1 X3.53 Y18.80
G1 X3.57 Y18.76
G1 X3.54 Y18.00
G1 X3.57 Y17.97
G1 X3.54 Y17.20
G1 X3.57 Y17.17
G1 X3.54 Y16.40
G1 X3.57 Y16.37
G1 X3.54 Y15.60
G1 X3.57 Y15.57
G1 X3.54 Y14.80
G1 X3.57 Y14.77
G1 X3.54 Y14.00
G1 X3.57 Y13.97
G1 X3.54 Y13.20
G1 X3.57 Y13.17
G1 X3.54 Y12.40
G1 X3.57 Y12.37
G1 X3.54 Y11.60
G1 X3.57 Y11.57
G1 X3.54 Y10.80
G1 X3.57 Y10.77
G1 X3.54 Y10.00
G1 X3.57 Y9.97
G1 X3.54 Y9.20
G1 X3.57 Y9.17
G1 X3.54 Y8.40
G1 X3.57 Y8.37
G1 X3.54 Y7.60
G1 X3.57 Y7.57
G1 X3.54 Y6.80
G1 X3.57 Y6.77
G1 X3.54 Y6.00
G1 X3.57 Y5.97
G1 X3.54 Y5.20
G1 X3.57 Y5.17
G1 X3.54 Y4.40
G1 X3.57 Y4.37
G1 X3.54 Y3.60
G1 X3.57 Y3.57
G1 X3.54 Y2.80
G1 X3.57 Y2.77
G1 X3.54 Y2.00
G1 X3.57 Y1.97
G1 X3.54 Y1.20
G1 X3.57 Y1.17
G1 X3.54 Y0.40
G1 X3.54 Y0.40
G0 Z3.00

G0 X3.62 Y20.70
G1 Z0.00 F1200
G1 X3.57 Y20.40
G1 X3.85 Y19.99
G1 X3.85 Y19.88
G0 Z3.00

G0 X17.76 Y1.10
G1 Z0.00 F1200
G1 X17.11 Y1.43
G1 X17.04 Y1.88
G1 X16.64 Y2.08
G1 X16.58 Y2.53
G1 X16.18 Y2.73
G1 X16.12 Y3.18
G1 X15.72 Y3.39
G1 X15.65 Y3.84
G1 X15.25 Y4.04
G1 X15.19 Y4.49
G1 X14.79 Y4.69
G1 X14.73 Y5.14
G1 X14.33 Y5.34
G1 X14.26 Y5.79
G1 X13.86 Y6.00
G1 X13.80 Y6.44
G1 X13.40 Y6.65
G1 X13.34 Y7.10
G1 X12.94 Y7.30
G1 X12.87 Y7.75
G1 X12.48 Y7.95
G1 X12.41 Y8.40
G1 X12.01 Y8.61
G1 X11.94 Y9.05
G1 X11.55 Y9.26
G1 X11.48 Y9.70
G1 X11.09 Y9.91
G1 X11.02 Y10.36
G1 X10.63 Y10.56
G1 X10.56 Y11.01
G1 X10.16 Y11.22
G1 X10.10 Y11.66
G1 X9.70 Y11.87
G1 X9.63 Y12.32
G1 X9.24 Y12.52
G1 X9.17 Y12.97
G1 X8.78 Y13.18
G1 X8.71 Y13.62
G1 X8.32 Y13.83
G1 X8.25 Y14.28
G1 X7.85 Y14.48
G1 X7.79 Y14.93
G1 X7.39 Y15.13
G1 X7.32 Y15.58
G1 X6.93 Y15.79
G1 X6.86 Y16.24
G1 X6.47 Y16.44
G1 X6.40 Y16.89
G1 X6.01 Y17.09
G1 X5.94 Y17.54
G1 X5.54 Y17.75
G1 X5.48 Y18.20
G1 X5.08 Y18.40
G1 X5.02 Y18.85
G1 X4.62 Y19.05
G1 X4.55 Y19.50
G1 X3.93 Y19.83
G1 X3.85 Y19.88
G0 Z3.00

G0 X17.89 Y20.78
G1 Z0.00 F1200
G1 X17.85 Y20.44
G1 X17.94 Y20.33
G1 X17.85 Y19.64
G1 X17.94 Y19.53
G1 X17.85 Y18.84
G1 X17.94 Y18.73
G1 X17.85 Y18.04
G1 X17.94 Y17.93
G1 X17.85 Y17.24
G1 X17.94 Y17.13
G1 X17.85 Y16.44
G1 X17.94 Y16.33
G1 X17.85 Y15.64
G1 X17.94 Y15.53
G1 X17.85 Y14.84
G1 X17.94 Y14.73
G1 X17.85 Y14.04
G1 X17.94 Y13.93
G1 X17.85 Y13.24
G1 X17.94 Y13.13
G1 X17.85 Y12.44
G1 X17.94 Y12.33
G1 X17.85 Y11.64
G1 X17.94 Y11.53
G1 X17.85 Y10.84
G1 X17.94 Y10.73
G1 X17.85 Y10.04
G1 X17.94 Y9.93
G1 X17.85 Y9.24
G1 X17.94 Y9.13
G1 X17.85 Y8.44
G1 X17.94 Y8.33
G1 X17.85 Y7.64
G1 X17.94 Y7.53
G1 X17.85 Y6.84
G1 X17.94 Y6.73
G1 X17.85 Y6.04
G1 X17.94 Y5.93
G1 X17.85 Y5.24
G1 X17.94 Y5.13
G1 X17.85 Y4.44
G1 X17.94 Y4.33
G1 X17.85 Y3.64
G1 X17.94 Y3.53
G1 X17.85 Y2.85
G1 X17.95 Y2.73
G1 X17.86 Y2.07
G1 X17.97 Y1.93
G1 X17.79 Y1.13
G1 X17.76 Y1.10
G0 Z3.00

G0 X18.01 Y0.39
G1 Z0.00 F1200
G1 X17.72 Y0.88
G1 X17.76 Y1.10
G0 Z3.00

G0 X22.87 Y-1.00
G1 Z0.00 F1200
G1 X23.72 Y-1.48
G1 X24.03 Y-1.80
G1 X24.83 Y-2.32
G1 X25.14 Y-2.60
G1 X25.93 Y-3.13
G1 X26.08 Y-3.26
G0 Z3.00

G0 X25.72 Y-3.49
G1 Z0.00 F1200
G1 X23.50 Y-4.20
G0 Z3.00

G0 X23.80 Y8.83
G1 Z0.00 F1200
G1 X24.53 Y8.85
G1 X26.90 Y9.63
G1 X27.02 Y9.65
G1 X27.87 Y9.93
G0 Z3.00

G0 X25.58 Y-3.64
G1 Z0.00 F1200
G1 X25.65 Y-3.58
G1 X25.72 Y-3.49
G0 Z3.00

G0 X26.08 Y-3.26
G1 Z0.00 F1200
G1 X25.84 Y-3.40
G1 X25.72 Y-3.49
G0 Z3.00

G0 X25.82 Y11.83
G1 Z0.00 F1200
G1 X27.89 Y10.41
G0 Z3.00

G0 X27.83 Y9.87
G1 Z0.00 F1200
G1 X27.70 Y9.68
G1 X26.71 Y8.45
G1 X25.93 Y7.14
G0 Z3.00

G0 X26.06 Y-4.54
G1 Z0.00 F1200
G1 X26.47 Y-3.30
G0 Z3.00

G0 X26.08 Y-3.26
G1 Z0.00 F1200
G1 X26.47 Y-3.30
G0 Z3.00

G0 X27.91 Y-3.15
G1 Z0.00 F1200
G1 X27.72 Y-3.19
G1 X27.08 Y-3.26
G1 X26.81 Y-3.26
G1 X26.47 Y-3.30
G0 Z3.00

G0 X26.59 Y10.61
G1 Z0.00 F1200
G1 X27.17 Y10.43
G1 X28.02 Y10.26
G0 Z3.00

G0 X27.20 Y11.46
G1 Z0.00 F1200
G1 X27.48 Y11.08
G1 X27.89 Y10.41
G0 Z3.00

G0 X27.76 Y12.70
G1 Z0.00 F1200
G1 X28.21 Y10.21
G0 Z3.00

G0 X27.83 Y9.87
G1 Z0.00 F1200
G1 X27.87 Y9.93
G0 Z3.00

G0 X27.91 Y-3.15
G1 Z0.00 F1200
G1 X27.82 Y-2.67
G1 X27.16 Y-0.32
G1 X26.43 Y0.92
G1 X25.66 Y1.06
G1 X25.64 Y1.09
G1 X24.88 Y1.13
G1 X24.83 Y1.26
G1 X24.45 Y1.47
G1 X24.39 Y2.00
G1 X24.48 Y2.08
G1 X24.39 Y2.80
G1 X24.48 Y2.88
G1 X24.39 Y3.60
G1 X24.64 Y3.83
G1 X24.66 Y4.16
G1 X24.83 Y4.39
G1 X25.26 Y4.45
G1 X25.51 Y4.86
G1 X26.02 Y4.83
G1 X26.21 Y5.27
G1 X26.79 Y5.12
G1 X27.42 Y6.52
G1 X27.83 Y9.87
G0 Z3.00

G0 X28.12 Y10.19
G1 Z0.00 F1200
G1 X27.87 Y9.93
G0 Z3.00

G0 X27.89 Y10.41
G1 Z0.00 F1200
G1 X28.02 Y10.26
G0 Z3.00

G0 X31.35 Y-2.95
G1 Z0.00 F1200
G1 X31.21 Y-2.96
G1 X30.93 Y-3.01
G1 X30.70 Y-3.08
G1 X30.53 Y-3.11
G1 X30.37 Y-3.12
G1 X30.12 Y-3.12
G1 X29.56 Y-3.17
G1 X29.31 Y-3.17
G1 X29.10 Y-3.19
G1 X28.80 Y-3.19
G1 X28.58 Y-3.16
G1 X28.00 Y-3.16
G1 X27.91 Y-3.15
G0 Z3.00

G0 X28.02 Y10.26
G1 Z0.00 F1200
G1 X28.12 Y10.19
G0 Z3.00

G0 X28.21 Y10.21
G1 Z0.00 F1200
G1 X28.13 Y10.19
G1 X28.12 Y10.19
G0 Z3.00

G0 X28.21 Y10.21
G1 Z0.00 F1200
G1 X28.21 Y10.21
G1 X28.53 Y10.26
G1 X28.69 Y10.27
G0 Z3.00

G0 X28.81 Y10.39
G1 Z0.00 F1200
G1 X28.69 Y10.27
G0 Z3.00

G0 X29.12 Y9.94
G1 Z0.00 F1200
G1 X28.90 Y10.12
G1 X28.73 Y10.23
G1 X28.69 Y10.27
G0 Z3.00

G0 X28.81 Y10.39
G1 Z0.00 F1200
G1 X29.12 Y10.61
G0 Z3.00

G0 X28.81 Y10.39
G1 Z0.00 F1200
G1 X29.30 Y12.89
G0 Z3.00

G0 X32.77 Y12.50
G1 Z0.00 F1200
G1 X31.36 Y11.72
G1 X31.28 Y11.69
G1 X29.87 Y10.92
G1 X29.12 Y10.61
G0 Z3.00

G0 X32.47 Y14.41
G1 Z0.00 F1200
G1 X32.46 Y14.42
G1 X31.66 Y14.41
G1 X30.76 Y13.36
G1 X30.74 Y13.31
G1 X29.12 Y10.61
G0 Z3.00

G0 X29.12 Y9.94
G1 Z0.00 F1200
G1 X30.16 Y7.82
G0 Z3.00

G0 X29.26 Y9.87
G1 Z0.00 F1200
G1 X29.12 Y9.94
G0 Z3.00

G0 X29.26 Y9.87
G1 Z0.00 F1200
G1 X29.83 Y9.41
G1 X30.39 Y8.84
G0 Z3.00

G0 X31.74 Y9.32
G1 Z0.00 F1200
G1 X29.26 Y9.87
G0 Z3.00

G0 X31.35 Y-2.95
G1 Z0.00 F1200
G1 X31.56 Y-2.86
G0 Z3.00

G0 X31.35 Y-2.95
G1 Z0.00 F1200
G1 X31.41 Y-3.01
G1 X32.04 Y-3.85
G0 Z3.00

G0 X31.56 Y-2.86
G1 Z0.00 F1200
G1 X32.15 Y-2.36
G1 X32.42 Y-2.18
G1 X33.15 Y-1.55
G1 X33.43 Y-1.38
G1 X34.15 Y-0.72
G1 X34.50 Y-0.58
G0 Z3.00

G0 X33.63 Y-3.58
G1 Z0.00 F1200
G1 X32.07 Y-2.98
G1 X31.56 Y-2.86
G0 Z3.00

G0 X32.47 Y14.08
G1 Z0.00 F1200
G1 X32.47 Y14.41
G0 Z3.00

G0 X34.56 Y14.42
G1 Z0.00 F1200
G1 X34.07 Y14.41
G1 X34.06 Y14.42
G1 X33.27 Y14.41
G1 X33.26 Y14.42
G1 X32.47 Y14.41
G0 Z3.00

G0 X38.73 Y14.39
G1 Z0.00 F1200
G1 X38.74 Y13.93
G1 X38.72 Y13.91
G1 X38.74 Y13.13
G1 X38.72 Y13.11
G1 X38.74 Y12.33
G1 X38.72 Y12.31
G1 X38.74 Y11.53
G1 X38.72 Y11.51
G1 X38.74 Y10.73
G1 X38.72 Y10.71
G1 X38.74 Y9.93
G1 X38.72 Y9.91
G1 X38.74 Y9.13
G1 X38.72 Y9.11
G1 X38.74 Y8.33
G1 X38.72 Y8.31
G1 X38.74 Y7.53
G1 X38.72 Y7.51
G1 X38.74 Y6.73
G1 X38.72 Y6.71
G1 X38.74 Y5.93
G1 X38.72 Y5.91
G1 X38.74 Y5.13
G1 X38.72 Y5.11
G1 X38.74 Y4.33
G1 X38.72 Y4.31
G1 X38.74 Y3.57
G1 X38.81 Y3.52
G1 X38.83 Y2.78
G1 X39.03 Y2.67
G1 X39.09 Y2.02
G1 X39.27 Y1.90
G1 X39.35 Y1.26
G1 X39.54 Y1.10
G1 X39.66 Y0.51
G1 X39.82 Y0.36
G1 X40.11 Y0.27
G1 X40.32 Y0.32
G1 X40.91 Y0.11
G1 X41.12 Y0.19
G1 X41.71 Y-0.05
G1 X42.00 Y0.12
G1 X42.51 Y-0.11
G1 X42.83 Y0.11
G1 X43.30 Y-0.10
G1 X43.63 Y0.11
G1 X44.05 Y-0.08
G1 X44.44 Y0.25
G1 X44.83 Y0.08
G1 X45.25 Y0.50
G1 X45.51 Y0.43
G1 X45.96 Y0.87
G1 X46.18 Y0.82
G1 X46.65 Y1.27
G1 X46.82 Y1.23
G1 X47.34 Y1.77
G0 Z3.00

G0 X48.11 Y2.38
G1 Z0.00 F1200
G1 X47.90 Y2.40
G1 X47.34 Y1.78
G1 X47.34 Y1.77
G0 Z3.00

G0 X47.34 Y1.77
G1 Z0.00 F1200
G1 X47.54 Y1.60
G0 Z3.00

G0 X48.11 Y2.38
G1 Z0.00 F1200
G1 X48.28 Y2.16
G1 X48.24 Y1.93
G1 X48.37 Y1.36
G1 X48.23 Y1.20
G1 X48.37 Y0.56
G1 X48.25 Y0.43
G1 X47.98 Y0.40
G0 Z3.00

G0 X48.11 Y2.38
G1 Z0.00 F1200
G1 X48.37 Y2.96
G1 X48.19 Y3.27
G1 X48.41 Y3.76
G1 X48.19 Y4.08
G1 X48.41 Y4.56
G1 X48.19 Y4.88
G1 X48.41 Y5.36
G1 X48.19 Y5.68
G1 X48.41 Y6.16
G1 X48.19 Y6.48
G1 X48.41 Y6.96
G1 X48.19 Y7.28
G1 X48.41 Y7.76
G1 X48.19 Y8.08
G1 X48.41 Y8.56
G1 X48.19 Y8.88
G1 X48.41 Y9.36
G1 X48.19 Y9.68
G1 X48.41 Y10.16
G1 X48.19 Y10.48
G1 X48.41 Y10.96
G1 X48.19 Y11.28
G1 X48.41 Y11.76
G1 X48.19 Y12.08
G1 X48.41 Y12.56
G1 X48.19 Y12.88
G1 X48.41 Y13.36
G1 X48.19 Y13.68
G1 X48.41 Y14.16
G1 X48.26 Y14.37
G0 Z3.00

G0 X52.03 Y14.49
G1 Z0.00 F1200
G1 X52.24 Y14.03
G1 X52.24 Y14.03
G1 X52.56 Y13.30
G1 X52.56 Y13.30
G1 X52.88 Y12.57
G1 X52.89 Y12.57
G1 X53.21 Y11.84
G1 X53.21 Y11.84
G1 X53.53 Y11.11
G1 X53.53 Y11.11
G1 X53.86 Y10.38
G1 X53.86 Y10.37
G1 X54.18 Y9.64
G1 X54.18 Y9.64
G1 X54.50 Y8.91
G1 X54.51 Y8.91
G1 X54.83 Y8.18
G1 X54.83 Y8.18
G1 X55.15 Y7.45
G1 X55.15 Y7.45
G1 X55.48 Y6.72
G1 X55.48 Y6.72
G1 X55.80 Y5.99
G1 X55.80 Y5.99
G1 X56.12 Y5.26
G1 X56.13 Y5.25
G1 X56.45 Y4.52
G1 X56.45 Y4.52
G1 X56.77 Y3.79
G1 X56.78 Y3.79
G1 X57.10 Y3.06
G1 X57.10 Y3.06
G1 X57.42 Y2.33
G1 X57.42 Y2.33
G1 X57.73 Y1.63
G1 X57.71 Y1.58
G1 X58.04 Y0.85
G1 X58.30 Y0.76
G0 Z3.00

G0 X55.42 Y-6.84
G1 Z0.00 F1200
G1 X55.71 Y-6.64
G1 X55.72 Y-6.10
G1 X56.00 Y-5.91
G1 X56.01 Y-5.35
G1 X56.29 Y-5.16
G1 X56.30 Y-4.61
G1 X56.58 Y-4.42
G1 X56.59 Y-3.86
G1 X56.87 Y-3.67
G1 X56.89 Y-3.12
G1 X57.17 Y-2.93
G1 X57.18 Y-2.37
G1 X57.46 Y-2.18
G1 X57.47 Y-1.63
G1 X57.75 Y-1.44
G1 X57.76 Y-0.88
G1 X58.04 Y-0.69
G1 X58.05 Y-0.12
G1 X58.29 Y0.07
G1 X58.30 Y0.76
G0 Z3.00

G0 X58.30 Y0.76
G1 Z0.00 F1200
G1 X58.48 Y0.85
G1 X58.60 Y1.18
G1 X58.94 Y1.53
G1 X58.85 Y1.89
G1 X59.24 Y2.28
G1 X59.15 Y2.63
G1 X59.53 Y3.02
G1 X59.44 Y3.38
G1 X59.82 Y3.77
G1 X59.73 Y4.12
G1 X60.11 Y4.51
G1 X60.02 Y4.87
G1 X60.40 Y5.26
G1 X60.31 Y5.61
G1 X60.69 Y6.00
G1 X60.60 Y6.36
G1 X60.98 Y6.75
G1 X60.89 Y7.10
G1 X61.27 Y7.49
G1 X61.18 Y7.85
G1 X61.56 Y8.24
G1 X61.47 Y8.59
G1 X61.85 Y8.98
G1 X61.76 Y9.34
G1 X62.14 Y9.73
G1 X62.05 Y10.08
G1 X62.43 Y10.47
G1 X62.35 Y10.83
G1 X62.72 Y11.22
G1 X62.64 Y11.57
G1 X63.01 Y11.97
G1 X62.93 Y12.32
G1 X63.30 Y12.71
G1 X63.22 Y13.06
G1 X63.59 Y13.46
G1 X63.51 Y13.81
G1 X63.88 Y14.20
G1 X63.86 Y14.31
G0 Z3.00

G0 X68.70 Y23.29
G1 Z0.00 F1200
G1 X68.68 Y23.32
G1 X68.82 Y24.00
G1 X69.07 Y24.11
G1 X69.15 Y24.47
G1 X69.59 Y24.79
G1 X69.61 Y24.94
G1 X70.08 Y25.25
G1 X70.51 Y25.09
G1 X70.80 Y25.28
G1 X71.33 Y25.08
G1 X71.43 Y24.83
G1 X71.96 Y24.65
G1 X72.07 Y24.34
G1 X72.58 Y24.16
G1 X72.69 Y23.85
G1 X73.24 Y23.67
G1 X73.34 Y23.40
G1 X73.93 Y23.23
G1 X74.13 Y23.38
G1 X74.62 Y23.24
G1 X74.93 Y23.49
G1 X75.35 Y23.31
G1 X75.67 Y23.96
G1 X75.72 Y23.97
G1 X75.92 Y24.68
G1 X75.88 Y24.73
G1 X76.01 Y25.22
G0 Z3.00

G0 X69.17 Y16.81
G1 Z0.00 F1200
G1 X69.42 Y17.28
G1 X69.57 Y17.30
G1 X69.90 Y17.92
G1 X70.05 Y17.94
G1 X70.39 Y18.56
G1 X70.53 Y18.58
G1 X70.87 Y19.19
G1 X71.01 Y19.22
G1 X71.35 Y19.83
G1 X71.49 Y19.86
G1 X71.84 Y20.47
G1 X72.13 Y20.53
G1 X72.37 Y20.72
G0 Z3.00

G0 X70.61 Y11.15
G1 Z0.00 F1200
G1 X69.79 Y12.19
G0 Z3.00

G0 X70.61 Y11.15
G1 Z0.00 F1200
G1 X71.14 Y11.28
G1 X71.18 Y11.30
G1 X71.55 Y11.39
G0 Z3.00

G0 X70.61 Y11.15
G1 Z0.00 F1200
G1 X70.37 Y11.03
G1 X70.34 Y11.01
G1 X69.57 Y10.63
G1 X69.54 Y10.61
G1 X69.34 Y10.51
G1 X68.99 Y10.26
G1 X68.74 Y10.03
G1 X68.18 Y9.65
G1 X67.94 Y9.41
G1 X67.39 Y9.06
G1 X67.14 Y8.78
G1 X66.87 Y8.62
G1 X66.27 Y7.82
G1 X66.43 Y7.30
G1 X66.23 Y7.02
G1 X66.43 Y6.50
G1 X66.23 Y6.23
G1 X66.47 Y5.63
G1 X66.41 Y5.53
G1 X66.67 Y4.86
G1 X66.61 Y4.75
G1 X66.87 Y4.09
G1 X66.81 Y3.98
G1 X67.09 Y3.28
G1 X67.13 Y3.26
G1 X67.38 Y2.65
G1 X67.64 Y2.58
G1 X67.87 Y2.01
G1 X68.13 Y1.95
G1 X68.36 Y1.38
G1 X68.68 Y1.31
G1 X68.85 Y0.94
G1 X69.43 Y0.88
G1 X69.57 Y0.61
G1 X70.16 Y0.54
G1 X70.29 Y0.27
G1 X70.89 Y0.21
G1 X71.00 Y0.00
G1 X71.70 Y-0.06
G1 X71.76 Y0.00
G1 X72.50 Y-0.06
G1 X72.56 Y0.00
G1 X72.96 Y-0.03
G1 X73.36 Y-0.00
G1 X73.41 Y-0.06
G1 X74.20 Y0.00
G1 X74.21 Y-0.01
G1 X75.01 Y0.06
G1 X75.07 Y0.12
G1 X75.55 Y0.18
G1 X75.79 Y0.49
G1 X76.26 Y0.51
G1 X76.50 Y0.88
G1 X77.00 Y0.85
G1 X77.22 Y1.34
G1 X77.43 Y1.34
G0 Z3.00

G0 X71.00 Y13.31
G1 Z0.00 F1200
G1 X71.55 Y11.39
G0 Z3.00

G0 X72.92 Y11.38
G1 Z0.00 F1200
G1 X72.74 Y11.38
G1 X72.50 Y11.39
G1 X71.94 Y11.38
G1 X71.70 Y11.39
G1 X71.55 Y11.39
G0 Z3.00

G0 X72.37 Y20.72
G1 Z0.00 F1200
G1 X72.39 Y20.83
G1 X72.45 Y20.89
G0 Z3.00

G0 X72.37 Y20.72
G1 Z0.00 F1200
G1 X72.98 Y20.29
G1 X73.01 Y19.98
G1 X73.47 Y19.65
G1 X73.49 Y19.34
G1 X73.96 Y19.02
G1 X73.97 Y18.71
G1 X74.45 Y18.39
G1 X74.46 Y18.07
G1 X74.94 Y17.75
G1 X74.94 Y17.43
G1 X75.43 Y17.12
G1 X75.43 Y17.04
G0 Z3.00

G0 X73.30 Y13.22
G1 Z0.00 F1200
G1 X72.92 Y11.38
G0 Z3.00

G0 X73.80 Y11.18
G1 Z0.00 F1200
G1 X73.54 Y11.23
G1 X73.18 Y11.34
G1 X72.92 Y11.38
G0 Z3.00

G0 X73.80 Y11.18
G1 Z0.00 F1200
G1 X74.96 Y12.28
G1 X75.53 Y13.05
G1 X76.05 Y13.45
G1 X76.33 Y13.96
G0 Z3.00

G0 X77.54 Y8.05
G1 Z0.00 F1200
G1 X76.74 Y8.84
G1 X76.74 Y8.85
G1 X76.23 Y9.36
G1 X75.94 Y9.54
G1 X75.51 Y9.94
G1 X75.14 Y10.19
G1 X74.71 Y10.58
G1 X74.48 Y10.74
G1 X74.34 Y10.81
G1 X73.80 Y11.18
G0 Z3.00

G0 X82.24 Y12.45
G1 Z0.00 F1200
G1 X82.18 Y12.52
G1 X82.18 Y12.56
G1 X82.01 Y13.32
G1 X82.15 Y13.48
G1 X82.01 Y14.12
G1 X82.15 Y14.28
G1 X82.07 Y14.64
G0 Z3.00

G0 X82.24 Y12.45
G1 Z0.00 F1200
G1 X82.07 Y11.72
G1 X82.16 Y11.59
G1 X82.01 Y10.92
G1 X82.15 Y10.76
G1 X82.01 Y10.12
G1 X82.15 Y9.96
G1 X82.01 Y9.32
G1 X82.15 Y9.16
G1 X82.01 Y8.52
G1 X82.15 Y8.36
G1 X82.01 Y7.72
G1 X82.15 Y7.56
G1 X82.01 Y6.92
G1 X82.15 Y6.76
G1 X82.01 Y6.12
G1 X82.15 Y5.96
G1 X82.01 Y5.32
G1 X82.15 Y5.16
G1 X82.01 Y4.52
G1 X82.15 Y4.36
G1 X82.01 Y3.72
G1 X82.15 Y3.56
G1 X82.01 Y2.92
G1 X82.15 Y2.76
G1 X82.01 Y2.12
G1 X82.15 Y1.96
G1 X82.01 Y1.32
G1 X82.15 Y1.16
G1 X82.01 Y0.52
G1 X82.12 Y0.40
G0 Z3.00

G0 X82.24 Y12.45
G1 Z0.00 F1200
G1 X82.53 Y12.43
G1 X83.07 Y13.03
G1 X83.05 Y13.07
G1 X83.56 Y13.65
G1 X83.61 Y13.63
G0 Z3.00

G0 X85.70 Y14.80
G1 Z0.00 F1200
G1 X86.16 Y14.55
G1 X86.50 Y14.84
G1 X86.96 Y14.66
G1 X87.25 Y14.86
G1 X87.76 Y14.66
G1 X88.05 Y14.86
G1 X88.56 Y14.66
G1 X88.85 Y14.86
G1 X89.36 Y14.66
G1 X89.65 Y14.86
G1 X90.34 Y14.58
G1 X90.45 Y14.60
G1 X90.61 Y14.52
G1 X90.87 Y14.13
G1 X90.83 Y13.77
G1 X91.13 Y13.36
G1 X91.06 Y13.00
G1 X91.38 Y12.60
G1 X91.29 Y12.22
G1 X91.63 Y11.84
G1 X91.48 Y11.40
G1 X91.77 Y11.07
G1 X91.58 Y10.58
G1 X91.78 Y10.30
G1 X91.58 Y9.78
G1 X91.78 Y9.50
G1 X91.58 Y8.98
G1 X91.78 Y8.70
G1 X91.58 Y8.18
G1 X91.78 Y7.90
G1 X91.58 Y7.38
G1 X91.78 Y7.10
G1 X91.58 Y6.58
G1 X91.78 Y6.30
G1 X91.58 Y5.78
G1 X91.78 Y5.50
G1 X91.58 Y4.98
G1 X91.78 Y4.70
G1 X91.58 Y4.18
G1 X91.78 Y3.90
G1 X91.58 Y3.38
G1 X91.78 Y3.10
G1 X91.58 Y2.58
G1 X91.78 Y2.30
G1 X91.58 Y1.78
G1 X91.78 Y1.50
G1 X91.58 Y0.98
G1 X91.78 Y0.70
G1 X91.66 Y0.37
G0 Z3.00

G0 X107.23 Y20.93
G1 Z0.00 F1200
G1 X107.64 Y20.28
G1 X108.03 Y20.04
G1 X108.49 Y19.48
G1 X108.83 Y19.22
G1 X109.30 Y18.68
G1 X109.63 Y18.41
G1 X110.11 Y17.88
G1 X110.43 Y17.60
G1 X110.91 Y17.08
G1 X111.23 Y16.80
G1 X111.72 Y16.28
G1 X112.03 Y15.99
G1 X112.09 Y15.93
G1 X112.36 Y15.60
G0 Z3.00

G0 X112.36 Y15.60
G1 Z0.00 F1200
G1 X112.25 Y15.48
G1 X112.11 Y15.30
G1 X111.53 Y14.68
G1 X111.38 Y14.50
G1 X110.98 Y14.07
G1 X110.76 Y13.88
G1 X110.22 Y13.30
G1 X109.95 Y13.08
G1 X109.42 Y12.50
G1 X109.15 Y12.28
G1 X108.62 Y11.69
G1 X108.33 Y11.48
G1 X107.67 Y10.68
G1 X107.65 Y10.59
G1 X107.15 Y9.88
G1 X107.32 Y9.31
G1 X107.15 Y9.08
G1 X107.32 Y8.51
G1 X107.15 Y8.28
G1 X107.32 Y7.71
G1 X107.15 Y7.48
G1 X107.32 Y6.91
G1 X107.15 Y6.68
G1 X107.32 Y6.11
G1 X107.15 Y5.88
G1 X107.32 Y5.31
G1 X107.15 Y5.08
G1 X107.32 Y4.51
G1 X107.15 Y4.28
G1 X107.32 Y3.71
G1 X107.15 Y3.48
G1 X107.32 Y2.91
G1 X107.15 Y2.68
G1 X107.32 Y2.11
G1 X107.15 Y1.88
G1 X107.32 Y1.31
G1 X107.15 Y1.08
G1 X107.32 Y0.51
G1 X107.24 Y0.40
G0 Z3.00

G0 X112.93 Y15.58
G1 Z0.00 F1200
G1 X112.88 Y15.58
G1 X112.84 Y15.59
G1 X112.36 Y15.60
G0 Z3.00

G0 X112.93 Y15.58
G1 Z0.00 F1200
G1 X113.42 Y15.98
G1 X113.50 Y16.06
G0 Z3.00

G0 X112.93 Y15.58
G1 Z0.00 F1200
G1 X112.93 Y15.58
G0 Z3.00

G0 X112.93 Y15.58
G1 Z0.00 F1200
G1 X113.67 Y13.26
G0 Z3.00

G0 X112.93 Y15.58
G1 Z0.00 F1200
G1 X113.56 Y15.18
G1 X113.65 Y15.11
G0 Z3.00

G0 X117.29 Y17.54
G1 Z0.00 F1200
G1 X115.42 Y16.78
G1 X115.17 Y16.72
G1 X113.50 Y16.06
G0 Z3.00

G0 X113.50 Y16.06
G1 Z0.00 F1200
G1 X113.76 Y16.53
G1 X113.79 Y16.61
G1 X114.87 Y18.59
G1 X114.90 Y18.69
G0 Z3.00

G0 X113.65 Y15.11
G1 Z0.00 F1200
G1 X113.73 Y15.02
G1 X114.40 Y14.33
G1 X115.70 Y12.67
G0 Z3.00

G0 X113.65 Y15.11
G1 Z0.00 F1200
G1 X115.62 Y14.48
G1 X116.18 Y14.38
G0 Z3.00

G0 X122.69 Y0.40
G1 Z0.00 F1200
G1 X122.91 Y0.44
G1 X123.06 Y0.64
G1 X122.88 Y1.20
G1 X123.06 Y1.44
G1 X122.88 Y2.00
G1 X123.06 Y2.24
G1 X122.88 Y2.80
G1 X123.06 Y3.04
G1 X122.88 Y3.60
G1 X123.06 Y3.84
G1 X122.88 Y4.40
G1 X123.06 Y4.64
G1 X122.88 Y5.20
G1 X123.06 Y5.44
G1 X122.88 Y6.00
G1 X123.06 Y6.24
G1 X122.88 Y6.80
G1 X123.06 Y7.04
G1 X122.88 Y7.60
G1 X123.06 Y7.84
G1 X122.88 Y8.40
G1 X123.06 Y8.64
G1 X122.88 Y9.20
G1 X123.06 Y9.44
G1 X122.88 Y10.00
G1 X123.06 Y10.24
G1 X122.88 Y10.80
G1 X123.06 Y11.04
G1 X122.88 Y11.60
G1 X123.13 Y11.93
G1 X123.08 Y12.27
G0 Z3.00

G0 X122.94 Y22.00
G1 Z0.00 F1200
G1 X123.00 Y21.94
G1 X122.94 Y21.20
G1 X123.00 Y21.14
G1 X122.94 Y20.40
G1 X123.00 Y20.34
G1 X122.94 Y19.60
G1 X123.00 Y19.54
G1 X122.94 Y18.80
G1 X123.00 Y18.74
G1 X122.94 Y18.00
G1 X123.00 Y17.94
G1 X122.94 Y17.20
G1 X123.00 Y17.14
G1 X122.94 Y16.40
G1 X123.00 Y16.34
G1 X122.94 Y15.60
G1 X123.00 Y15.54
G1 X122.94 Y14.80
G1 X123.00 Y14.74
G1 X122.94 Y14.00
G1 X123.00 Y13.94
G1 X122.94 Y13.20
G1 X123.00 Y13.14
G0 Z3.00

G0 X123.00 Y13.14
G1 Z0.00 F1200
G1 X123.31 Y13.14
G0 Z3.00

G0 X123.00 Y13.14
G1 Z0.00 F1200
G1 X122.94 Y12.40
G1 X123.08 Y12.27
G0 Z3.00

G0 X123.08 Y12.27
G1 Z0.00 F1200
G1 X123.72 Y12.57
G1 X123.69 Y12.84
G1 X124.17 Y13.27
G1 X124.24 Y13.25
G1 X124.81 Y13.74
G1 X124.91 Y13.71
G1 X125.43 Y14.13
G1 X125.63 Y14.08
G1 X126.12 Y14.50
G1 X126.37 Y14.40
G1 X126.83 Y14.82
G1 X127.21 Y14.58
G1 X127.62 Y14.85
G1 X128.01 Y14.65
G1 X128.38 Y14.87
G1 X128.81 Y14.65
G1 X129.18 Y14.87
G1 X129.65 Y14.63
G1 X129.98 Y14.78
G1 X130.57 Y14.50
G1 X130.78 Y14.55
G1 X131.37 Y14.31
G0 Z3.00

G0 X131.58 Y14.61
G1 Z0.00 F1200
G1 X131.37 Y14.31
G0 Z3.00

G0 X131.37 Y14.31
G1 Z0.00 F1200
G1 X131.39 Y14.24
G1 X131.79 Y13.89
G1 X131.90 Y13.25
G1 X132.06 Y13.13
G1 X132.15 Y12.47
G1 X132.32 Y12.37
G1 X132.39 Y11.67
G1 X132.52 Y11.59
G1 X132.57 Y10.84
G1 X132.55 Y10.82
G1 X132.59 Y10.06
G1 X132.55 Y10.02
G1 X132.59 Y9.26
G1 X132.55 Y9.22
G1 X132.59 Y8.46
G1 X132.55 Y8.42
G1 X132.59 Y7.66
G1 X132.55 Y7.62
G1 X132.59 Y6.86
G1 X132.55 Y6.82
G1 X132.59 Y6.06
G1 X132.55 Y6.02
G1 X132.59 Y5.26
G1 X132.55 Y5.22
G1 X132.59 Y4.46
G1 X132.55 Y4.42
G1 X132.59 Y3.66
G1 X132.55 Y3.62
G1 X132.59 Y2.86
G1 X132.55 Y2.82
G1 X132.59 Y2.06
G1 X132.55 Y2.02
G1 X132.59 Y1.26
G1 X132.55 Y1.22
G1 X132.59 Y0.46
G1 X132.55 Y0.42
G0 Z3.00

G0 X138.27 Y12.98
G1 Z0.00 F1200
G1 X138.23 Y13.41
G1 X138.77 Y13.61
G1 X138.76 Y13.96
G1 X139.34 Y14.17
G1 X139.32 Y14.53
G1 X139.97 Y14.75
G1 X140.06 Y14.68
G1 X140.64 Y14.89
G1 X140.87 Y14.69
G1 X141.44 Y14.89
G1 X141.67 Y14.69
G1 X142.24 Y14.89
G1 X142.47 Y14.69
G1 X143.04 Y14.89
G1 X143.27 Y14.69
G1 X143.82 Y14.89
G1 X144.13 Y14.61
G1 X144.49 Y14.69
G1 X144.89 Y14.27
G1 X145.20 Y14.33
G1 X145.67 Y13.86
G1 X145.68 Y13.86
G1 X146.18 Y13.37
G1 X146.16 Y13.14
G1 X146.57 Y12.73
G1 X146.53 Y12.37
G1 X146.82 Y12.07
G1 X146.70 Y11.54
G1 X146.95 Y11.28
G1 X146.83 Y10.75
G1 X147.04 Y10.51
G1 X146.89 Y9.91
G1 X147.05 Y9.73
G1 X146.89 Y9.12
G1 X147.03 Y8.93
G1 X146.80 Y8.13
G1 X146.24 Y7.72
G1 X146.01 Y7.33
G1 X145.51 Y6.89
G1 X145.25 Y6.53
G1 X144.77 Y6.08
G1 X144.50 Y5.73
G1 X144.03 Y5.27
G1 X143.76 Y4.93
G1 X143.29 Y4.46
G1 X143.14 Y4.29
G0 Z3.00

G0 X141.32 Y3.79
G1 Z0.00 F1200
G1 X140.23 Y4.38
G1 X140.15 Y4.44
G1 X138.76 Y5.18
G1 X138.67 Y5.26
G0 Z3.00

G0 X139.96 Y3.58
G1 Z0.00 F1200
G1 X141.30 Y3.77
G0 Z3.00

G0 X140.75 Y3.42
G1 Z0.00 F1200
G1 X141.20 Y3.69
G0 Z3.00

G0 X140.96 Y3.35
G1 Z0.00 F1200
G1 X141.20 Y3.69
G0 Z3.00

G0 X141.20 Y3.69
G1 Z0.00 F1200
G1 X141.30 Y3.77
G0 Z3.00

G0 X141.30 Y3.77
G1 Z0.00 F1200
G1 X141.32 Y3.79
G0 Z3.00

G0 X141.32 Y3.79
G1 Z0.00 F1200
G1 X141.35 Y3.79
G1 X141.51 Y3.82
G1 X141.53 Y3.82
G0 Z3.00

G0 X141.53 Y3.82
G1 Z0.00 F1200
G1 X141.50 Y3.54
G0 Z3.00

G0 X141.52 Y6.55
G1 Z0.00 F1200
G1 X142.24 Y4.17
G1 X142.29 Y4.05
G0 Z3.00

G0 X142.29 Y4.05
G1 Z0.00 F1200
G1 X141.53 Y3.82
G0 Z3.00

G0 X142.29 Y4.05
G1 Z0.00 F1200
G1 X142.30 Y4.05
G1 X142.52 Y4.07
G1 X142.68 Y4.07
G0 Z3.00

G0 X142.68 Y4.07
G1 Z0.00 F1200
G1 X142.79 Y4.11
G1 X143.14 Y4.29
G0 Z3.00

G0 X143.90 Y0.86
G1 Z0.00 F1200
G1 X143.42 Y2.30
G1 X143.10 Y2.92
G1 X142.68 Y4.07
G0 Z3.00

G0 X147.01 Y0.36
G1 Z0.00 F1200
G1 X146.91 Y0.78
G1 X147.06 Y0.93
G1 X146.93 Y1.50
G1 X147.09 Y1.73
G1 X146.74 Y2.53
G1 X145.47 Y3.33
G1 X144.21 Y3.79
G1 X143.54 Y4.13
G1 X143.14 Y4.29
G0 Z3.00

G0 X153.22 Y12.45
G1 Z0.00 F1200
G1 X153.16 Y12.52
G1 X153.16 Y12.56
G1 X152.99 Y13.32
G1 X153.13 Y13.48
G1 X152.99 Y14.12
G1 X153.13 Y14.28
G1 X153.05 Y14.64
G0 Z3.00

G0 X153.22 Y12.45
G1 Z0.00 F1200
G1 X153.05 Y11.72
G1 X153.14 Y11.59
G1 X152.99 Y10.92
G1 X153.13 Y10.76
G1 X152.99 Y10.12
G1 X153.13 Y9.96
G1 X152.99 Y9.32
G1 X153.13 Y9.16
G1 X152.99 Y8.52
G1 X153.13 Y8.36
G1 X152.99 Y7.72
G1 X153.13 Y7.56
G1 X152.99 Y6.92
G1 X153.13 Y6.76
G1 X152.99 Y6.12
G1 X153.13 Y5.96
G1 X152.99 Y5.32
G1 X153.13 Y5.16
G1 X152.99 Y4.52
G1 X153.13 Y4.36
G1 X152.99 Y3.72
G1 X153.13 Y3.56
G1 X152.99 Y2.92
G1 X153.13 Y2.76
G1 X152.99 Y2.12
G1 X153.13 Y1.96
G1 X152.99 Y1.32
G1 X153.13 Y1.16
G1 X152.99 Y0.52
G1 X153.10 Y0.40
G0 Z3.00

G0 X153.22 Y12.45
G1 Z0.00 F1200
G1 X153.51 Y12.43
G1 X154.05 Y13.03
G1 X154.03 Y13.07
G1 X154.54 Y13.65
G1 X154.59 Y13.63
G0 Z3.00

G0 X156.68 Y14.80
G1 Z0.00 F1200
G1 X157.14 Y14.55
G1 X157.48 Y14.84
G1 X157.94 Y14.66
G1 X158.23 Y14.86
G1 X158.74 Y14.66
G1 X159.03 Y14.86
G1 X159.54 Y14.66
G1 X159.83 Y14.86
G1 X160.34 Y14.66
G1 X160.63 Y14.86
G1 X161.32 Y14.58
G1 X161.43 Y14.60
G1 X161.59 Y14.52
G1 X161.85 Y14.13
G1 X161.81 Y13.77
G1 X162.11 Y13.36
G1 X162.04 Y13.00
G1 X162.36 Y12.60
G1 X162.27 Y12.22
G1 X162.61 Y11.84
G1 X162.46 Y11.40
G1 X162.75 Y11.07
G1 X162.56 Y10.58
G1 X162.76 Y10.30
G1 X162.56 Y9.78
G1 X162.76 Y9.50
G1 X162.56 Y8.98
G1 X162.76 Y8.70
G1 X162.56 Y8.18
G1 X162.76 Y7.90
G1 X162.56 Y7.38
G1 X162.76 Y7.10
G1 X162.56 Y6.58
G1 X162.76 Y6.30
G1 X162.56 Y5.78
G1 X162.76 Y5.50
G1 X162.56 Y4.98
G1 X162.76 Y4.70
G1 X162.56 Y4.18
G1 X162.76 Y3.90
G1 X162.56 Y3.38
G1 X162.76 Y3.10
G1 X162.56 Y2.58
G1 X162.76 Y2.30
G1 X162.56 Y1.78
G1 X162.76 Y1.50
G1 X162.56 Y0.98
G1 X162.76 Y0.70
G1 X162.64 Y0.37
G0 Z3.00

G0 X178.31 Y20.77
G1 Z0.00 F1200
G1 X178.85 Y20.08
G1 X179.11 Y19.92
G1 X179.68 Y19.28
G1 X179.91 Y19.11
G1 X180.49 Y18.48
G1 X180.71 Y18.30
G1 X181.29 Y17.68
G1 X181.51 Y17.50
G1 X182.10 Y16.88
G1 X182.31 Y16.69
G1 X182.90 Y16.08
G1 X183.11 Y15.89
G1 X183.68 Y15.30
G1 X183.70 Y15.28
G1 X183.96 Y15.00
G1 X184.41 Y14.48
G1 X184.67 Y14.20
G1 X185.12 Y13.68
G1 X185.19 Y13.60
G0 Z3.00

G0 X178.53 Y0.62
G1 Z0.00 F1200
G1 X178.64 Y0.88
G1 X179.33 Y1.48
G1 X179.46 Y1.68
G1 X180.13 Y2.30
G1 X180.27 Y2.48
G1 X180.93 Y3.10
G1 X181.07 Y3.28
G1 X181.73 Y3.91
G1 X181.88 Y4.08
G1 X182.53 Y4.71
G1 X182.68 Y4.88
G1 X183.33 Y5.51
G1 X183.48 Y5.68
G1 X184.13 Y6.31
G1 X184.28 Y6.48
G1 X184.49 Y6.68
G0 Z3.00

G0 X184.49 Y6.68
G1 Z0.00 F1200
G1 X184.70 Y6.97
G1 X184.89 Y7.28
G1 X185.27 Y7.82
G1 X185.44 Y8.08
G1 X185.56 Y8.25
G0 Z3.00

G0 X184.49 Y6.68
G1 Z0.00 F1200
G1 X184.93 Y4.30
G1 X185.04 Y3.94
G0 Z3.00

G0 X185.19 Y13.60
G1 Z0.00 F1200
G1 X185.41 Y14.44
G1 X185.65 Y15.66
G0 Z3.00

G0 X185.63 Y12.95
G1 Z0.00 F1200
G1 X185.19 Y13.60
G0 Z3.00

G0 X185.56 Y8.25
G1 Z0.00 F1200
G1 X185.66 Y8.49
G0 Z3.00

G0 X185.56 Y8.25
G1 Z0.00 F1200
G1 X185.71 Y8.02
G1 X186.94 Y5.87
G1 X188.12 Y4.12
G0 Z3.00

G0 X185.63 Y12.95
G1 Z0.00 F1200
G1 X185.66 Y12.99
G1 X185.82 Y13.30
G1 X188.31 Y17.47
G0 Z3.00

G0 X185.63 Y12.95
G1 Z0.00 F1200
G1 X185.67 Y12.88
G1 X185.76 Y12.68
G0 Z3.00

G0 X185.66 Y8.49
G1 Z0.00 F1200
G1 X185.74 Y8.77
G1 X185.76 Y8.88
G1 X185.78 Y8.95
G0 Z3.00

G0 X188.15 Y6.49
G1 Z0.00 F1200
G1 X188.09 Y6.54
G1 X185.66 Y8.49
G0 Z3.00

G0 X186.75 Y13.36
G1 Z0.00 F1200
G1 X185.76 Y12.68
G0 Z3.00

G0 X185.90 Y11.96
G1 Z0.00 F1200
G1 X185.87 Y12.08
G1 X185.76 Y12.68
G0 Z3.00

G0 X185.78 Y8.95
G1 Z0.00 F1200
G1 X185.86 Y9.61
G1 X185.86 Y9.68
G1 X185.90 Y9.99
G0 Z3.00

G0 X185.78 Y8.95
G1 Z0.00 F1200
G1 X186.90 Y8.56
G1 X190.16 Y7.22
G0 Z3.00

G0 X185.90 Y11.96
G1 Z0.00 F1200
G1 X185.90 Y11.87
G1 X185.89 Y11.28
G1 X185.90 Y11.07
G1 X185.89 Y10.48
G1 X185.90 Y10.27
G1 X185.90 Y9.99
G0 Z3.00

G0 X185.90 Y9.99
G1 Z0.00 F1200
G1 X190.01 Y9.52
G0 Z3.00

G0 X185.90 Y11.96
G1 Z0.00 F1200
G1 X188.90 Y12.67
G1 X189.59 Y12.89
G1 X192.20 Y13.47
G0 Z3.00

G0 X192.59 Y16.46
G1 Z0.00 F1200
G1 X190.89 Y15.66
G1 X190.20 Y15.17
G1 X186.75 Y13.36
G0 Z3.00

G0 X186.75 Y13.36
G1 Z0.00 F1200
G1 X188.34 Y14.99
G0 Z3.00

G0 X198.54 Y14.39
G1 Z0.00 F1200
G1 X198.55 Y13.93
G1 X198.53 Y13.91
G1 X198.55 Y13.13
G1 X198.53 Y13.11
G1 X198.55 Y12.33
G1 X198.53 Y12.31
G1 X198.55 Y11.53
G1 X198.53 Y11.51
G1 X198.55 Y10.73
G1 X198.53 Y10.71
G1 X198.55 Y9.93
G1 X198.53 Y9.91
G1 X198.55 Y9.13
G1 X198.53 Y9.11
G1 X198.55 Y8.33
G1 X198.53 Y8.31
G1 X198.55 Y7.53
G1 X198.53 Y7.51
G1 X198.55 Y6.73
G1 X198.53 Y6.71
G1 X198.55 Y5.93
G1 X198.53 Y5.91
G1 X198.55 Y5.13
G1 X198.53 Y5.11
G1 X198.55 Y4.33
G1 X198.53 Y4.31
G1 X198.55 Y3.57
G1 X198.62 Y3.52
G1 X198.64 Y2.78
G1 X198.84 Y2.67
G1 X198.90 Y2.02
G1 X199.08 Y1.90
G1 X199.16 Y1.26
G1 X199.35 Y1.10
G1 X199.47 Y0.51
G1 X199.63 Y0.36
G1 X199.92 Y0.27
G1 X200.13 Y0.32
G1 X200.72 Y0.11
G1 X200.93 Y0.19
G1 X201.52 Y-0.05
G1 X201.81 Y0.12
G1 X202.32 Y-0.11
G1 X202.64 Y0.11
G1 X203.11 Y-0.10
G1 X203.44 Y0.11
G1 X203.86 Y-0.08
G1 X204.25 Y0.25
G1 X204.64 Y0.08
G1 X205.06 Y0.50
G1 X205.32 Y0.43
G1 X205.77 Y0.87
G1 X205.99 Y0.82
G1 X206.46 Y1.27
G1 X206.63 Y1.23
G1 X207.15 Y1.77
G0 Z3.00

G0 X207.92 Y2.38
G1 Z0.00 F1200
G1 X207.71 Y2.40
G1 X207.15 Y1.78
G1 X207.15 Y1.77
G0 Z3.00

G0 X207.15 Y1.77
G1 Z0.00 F1200
G1 X207.35 Y1.60
G0 Z3.00

G0 X207.92 Y2.38
G1 Z0.00 F1200
G1 X208.09 Y2.16
G1 X208.05 Y1.93
G1 X208.18 Y1.36
G1 X208.04 Y1.20
G1 X208.18 Y0.56
G1 X208.06 Y0.43
G1 X207.79 Y0.40
G0 Z3.00

G0 X208.07 Y14.37
G1 Z0.00 F1200
G1 X208.22 Y14.16
G1 X208.00 Y13.68
G1 X208.22 Y13.36
G1 X208.00 Y12.88
G1 X208.22 Y12.56
G1 X208.00 Y12.08
G1 X208.22 Y11.76
G1 X208.00 Y11.28
G1 X208.22 Y10.96
G1 X208.00 Y10.48
G1 X208.22 Y10.16
G1 X208.00 Y9.68
G1 X208.22 Y9.36
G1 X208.00 Y8.88
G1 X208.22 Y8.56
G1 X208.00 Y8.08
G1 X208.22 Y7.76
G1 X208.00 Y7.28
G1 X208.22 Y6.96
G1 X208.00 Y6.48
G1 X208.22 Y6.16
G1 X208.00 Y5.68
G1 X208.22 Y5.36
G1 X208.00 Y4.88
G1 X208.22 Y4.56
G1 X208.00 Y4.08
G1 X208.22 Y3.76
G1 X208.00 Y3.27
G1 X208.18 Y2.96
G1 X207.92 Y2.38
G0 Z3.00

G0 X0 Y0
M30