; --- G-CODE CNC 1 NÉT CHUẨN IN ẤN (WORD) ---
; Chuỗi: Nguyễn Phan Du
; Font Size: 24.0 pt (9.57 mm height)
; Kich thuoc thuc te: 56.26 x 9.57 mm
G21 ; Don vi: mm
G90 ; Toa do tuyet doi
G0 Z3.00 ; Lift Pen

G0 X9.15 Y5.30
G1 Z0.00 F1200
G1 X8.30 Y5.51
G1 X7.67 Y5.80
G1 X6.82 Y6.40
G1 X6.02 Y7.24
G1 X5.51 Y8.09
G1 X5.30 Y8.73
G1 X5.25 Y9.53
G1 X5.38 Y10.00
G1 X5.80 Y10.55
G1 X6.31 Y10.76
G1 X6.90 Y10.76
G1 X7.24 Y10.67
G1 X7.75 Y10.42
G1 X8.13 Y10.12
G1 X8.60 Y9.49
G1 X8.77 Y8.94
G1 X8.77 Y8.68
G1 X8.68 Y8.43
G1 X8.51 Y8.26
G1 X8.05 Y8.17
G1 X7.84 Y8.26
G1 X8.05 Y8.17
G1 X8.51 Y8.26
G1 X8.68 Y8.43
G1 X8.77 Y8.68
G1 X8.77 Y8.94
G1 X8.60 Y9.49
G1 X8.22 Y10.04
G1 X7.75 Y10.42
G1 X7.12 Y10.71
G1 X6.31 Y10.76
G1 X5.80 Y10.55
G1 X5.47 Y10.16
G1 X5.25 Y9.53
G1 X5.30 Y8.73
G1 X5.51 Y8.09
G1 X5.80 Y7.54
G1 X6.23 Y6.99
G1 X6.82 Y6.40
G1 X7.67 Y5.80
G1 X8.30 Y5.51
G1 X9.15 Y5.30
G1 X9.74 Y5.30
G1 X10.12 Y5.42
G1 X10.46 Y5.76
G1 X10.59 Y6.06
G1 X10.63 Y6.95
G1 X10.55 Y7.33
G1 X9.91 Y8.98
G1 X9.91 Y9.45
G1 X8.73 Y11.90
G1 X8.43 Y12.28
G1 X8.26 Y12.32
G1 X8.43 Y12.28
G1 X8.73 Y11.90
G1 X9.91 Y9.36
G1 X10.08 Y9.32
G1 X10.29 Y9.11
G1 X11.27 Y7.67
G1 X11.98 Y6.86
G1 X12.62 Y6.27
G1 X13.38 Y5.80
G1 X13.89 Y5.63
G1 X14.36 Y5.63
G1 X14.65 Y5.85
G1 X14.74 Y6.19
G1 X14.61 Y6.90
G1 X12.92 Y10.38
G1 X12.49 Y11.52
G1 X12.49 Y12.24
G1 X12.62 Y12.62
G1 X13.00 Y12.96
G1 X13.51 Y13.04
G1 X13.09 Y13.59
G1 X13.00 Y13.85
G1 X13.04 Y14.19
G1 X13.38 Y14.44
G1 X14.06 Y14.40
G1 X14.86 Y13.93
G1 X15.33 Y13.47
G1 X15.79 Y12.83
G1 X16.01 Y12.24
G1 X16.18 Y12.03
G1 X16.22 Y11.77
G1 X16.30 Y11.69
G1 X16.73 Y11.69
G1 X17.40 Y11.01
G1 X17.53 Y11.05
G1 X17.62 Y11.65
G1 X17.78 Y11.77
G1 X18.08 Y11.77
G1 X18.29 Y11.65
G1 X19.05 Y10.76
G1 X19.18 Y10.80
G1 X19.14 Y11.48
G1 X19.35 Y11.77
G1 X19.65 Y11.73
G1 X19.86 Y11.60
G1 X20.32 Y11.05
G1 X20.58 Y11.14
G1 X20.62 Y11.52
G1 X20.83 Y11.77
G1 X21.13 Y11.77
G1 X21.64 Y11.35
G1 X22.23 Y10.46
G1 X22.53 Y10.55
G1 X22.10 Y11.98
G1 X21.72 Y12.45
G1 X21.64 Y12.37
G1 X21.30 Y12.41
G1 X19.73 Y12.87
G1 X19.10 Y13.34
G1 X18.84 Y13.72
G1 X18.80 Y14.10
G1 X18.84 Y14.23
G1 X19.14 Y14.44
G1 X19.86 Y14.40
G1 X20.37 Y14.14
G1 X21.38 Y13.13
G1 X21.64 Y12.75
G1 X21.72 Y12.45
G1 X22.02 Y12.07
G1 X22.23 Y12.15
G1 X22.95 Y11.86
G1 X23.50 Y11.35
G1 X23.67 Y11.10
G1 X23.84 Y11.01
G1 X24.01 Y11.05
G1 X24.13 Y11.56
G1 X24.39 Y11.77
G1 X24.98 Y11.77
G1 X25.45 Y11.48
G1 X25.70 Y11.52
G1 X25.53 Y11.77
G1 X26.21 Y10.63
G1 X26.34 Y10.50
G1 X26.63 Y10.50
G1 X27.18 Y9.91
G1 X27.69 Y9.57
G1 X27.99 Y9.57
G1 X28.03 Y9.66
G1 X27.90 Y10.12
G1 X27.48 Y10.93
G1 X27.39 Y11.43
G1 X27.48 Y11.65
G1 X27.69 Y11.82
G1 X28.03 Y11.73
G1 X28.58 Y11.10
G1 X29.00 Y10.29
G1 X29.00 Y10.16
G1 X29.00 Y10.29
G1 X28.58 Y11.10
G1 X28.03 Y11.73
G1 X27.61 Y11.77
G1 X27.44 Y11.56
G1 X27.39 Y11.18
G1 X27.90 Y10.12
G1 X28.03 Y9.61
G1 X28.58 Y9.11
G1 X28.03 Y9.61
G1 X27.69 Y9.57
G1 X27.44 Y9.70
G1 X26.63 Y10.50
G1 X26.34 Y10.50
G1 X26.34 Y10.29
G1 X26.72 Y9.57
G1 X27.10 Y9.15
G1 X27.35 Y9.11
G1 X27.10 Y9.15
G1 X26.80 Y9.45
G1 X26.34 Y10.29
G1 X26.29 Y10.55
G1 X25.70 Y11.48
G1 X25.45 Y11.48
G1 X24.98 Y11.77
G1 X24.52 Y11.82
G1 X24.30 Y11.73
G1 X24.05 Y11.39
G1 X24.01 Y10.93
G1 X24.13 Y10.46
G1 X24.26 Y10.38
G1 X24.39 Y10.50
G1 X25.07 Y10.33
G1 X25.74 Y9.74
G1 X25.91 Y9.32
G1 X25.87 Y9.11
G1 X25.62 Y8.94
G1 X25.32 Y9.02
G1 X25.07 Y9.19
G1 X24.43 Y9.91
G1 X24.13 Y10.46
G1 X24.01 Y10.97
G1 X23.67 Y11.10
G1 X23.50 Y11.35
G1 X22.95 Y11.86
G1 X22.19 Y12.15
G1 X22.06 Y12.03
G1 X22.53 Y10.67
G1 X22.61 Y10.16
G1 X23.03 Y9.28
G1 X23.25 Y9.06
G1 X23.58 Y8.98
G1 X23.25 Y9.06
G1 X23.03 Y9.28
G1 X22.61 Y10.25
G1 X22.36 Y10.33
G1 X22.19 Y10.50
G1 X21.64 Y11.35
G1 X21.13 Y11.77
G1 X20.83 Y11.77
G1 X20.62 Y11.52
G1 X20.58 Y11.10
G1 X20.66 Y11.01
G1 X20.66 Y10.80
G1 X21.47 Y9.23
G1 X21.93 Y8.98
G1 X21.47 Y9.23
G1 X20.71 Y10.76
G1 X20.45 Y10.84
G1 X19.86 Y11.60
G1 X19.48 Y11.77
G1 X19.35 Y11.77
G1 X19.18 Y11.60
G1 X19.18 Y10.71
G1 X19.90 Y9.28
G1 X20.11 Y9.06
G1 X20.37 Y8.98
G1 X20.11 Y9.06
G1 X19.90 Y9.28
G1 X19.27 Y10.63
G1 X18.84 Y10.93
G1 X18.29 Y11.65
G1 X18.08 Y11.77
G1 X17.78 Y11.77
G1 X17.62 Y11.65
G1 X17.53 Y11.01
G1 X18.38 Y9.28
G1 X18.63 Y9.06
G1 X18.97 Y8.98
G1 X18.63 Y9.06
G1 X18.38 Y9.28
G1 X17.57 Y10.97
G1 X17.32 Y11.05
G1 X16.73 Y11.69
G1 X16.56 Y11.60
G1 X16.47 Y11.69
G1 X16.30 Y11.65
G1 X16.43 Y10.67
G1 X16.39 Y10.12
G1 X16.64 Y9.66
G1 X16.39 Y10.21
G1 X15.96 Y10.50
G1 X15.63 Y11.05
G1 X15.16 Y11.56
G1 X14.82 Y11.73
G1 X14.61 Y11.73
G1 X14.36 Y11.56
G1 X14.27 Y11.35
G1 X14.27 Y10.93
G1 X14.65 Y10.08
G1 X15.46 Y9.19
G1 X16.09 Y8.94
G1 X16.56 Y9.06
G1 X16.77 Y9.36
G1 X16.56 Y9.06
G1 X16.13 Y8.94
G1 X15.46 Y9.19
G1 X14.91 Y9.74
G1 X14.52 Y10.29
G1 X14.27 Y10.93
G1 X14.27 Y11.35
G1 X14.36 Y11.56
G1 X14.61 Y11.73
G1 X15.03 Y11.65
G1 X15.63 Y11.05
G1 X15.96 Y10.50
G1 X16.22 Y10.29
G1 X16.39 Y10.25
G1 X16.43 Y10.67
G1 X16.35 Y11.52
G1 X16.13 Y12.11
G1 X16.01 Y12.24
G1 X15.92 Y12.15
G1 X15.75 Y12.15
G1 X14.99 Y12.41
G1 X13.51 Y13.04
G1 X13.00 Y12.96
G1 X12.62 Y12.62
G1 X12.54 Y12.45
G1 X12.49 Y11.52
G1 X12.92 Y10.38
G1 X14.61 Y6.90
G1 X14.74 Y6.31
G1 X14.65 Y5.85
G1 X14.36 Y5.63
G1 X13.89 Y5.63
G1 X13.38 Y5.80
G1 X12.62 Y6.27
G1 X11.48 Y7.41
G1 X10.67 Y8.47
G1 X10.29 Y9.11
G1 X10.12 Y9.23
G1 X9.91 Y9.11
G1 X9.91 Y8.98
G1 X10.55 Y7.33
G1 X10.63 Y6.95
G1 X10.59 Y6.06
G1 X10.46 Y5.76
G1 X10.12 Y5.42
G1 X9.74 Y5.30
G1 X9.19 Y5.30
G0 Z3.00

G0 X26.00 Y7.92
G1 Z0.00 F1200
G1 X24.77 Y8.68
G1 X26.00 Y7.92
G1 X26.21 Y7.96
G1 X26.55 Y8.64
G1 X26.21 Y7.96
G1 X26.04 Y7.92
G0 Z3.00

G0 X27.48 Y7.03
G1 Z0.00 F1200
G1 X27.14 Y7.37
G1 X26.84 Y7.41
G1 X26.00 Y7.16
G1 X25.70 Y7.29
G1 X25.53 Y7.50
G1 X25.70 Y7.29
G1 X26.00 Y7.16
G1 X26.84 Y7.41
G1 X27.14 Y7.37
G1 X27.52 Y7.03
G0 Z3.00

G0 X37.38 Y5.63
G1 Z0.00 F1200
G1 X37.38 Y5.76
G1 X36.16 Y7.50
G1 X35.31 Y8.98
G1 X35.10 Y9.49
G1 X35.27 Y9.66
G1 X35.90 Y9.66
G1 X37.22 Y9.40
G1 X38.27 Y8.85
G1 X39.04 Y8.13
G1 X39.37 Y7.46
G1 X39.37 Y6.90
G1 X39.25 Y6.52
G1 X38.70 Y5.97
G1 X37.68 Y5.55
G1 X37.43 Y5.59
G0 Z3.00

G0 X38.23 Y5.08
G1 Z0.00 F1200
G1 X37.85 Y5.30
G1 X37.68 Y5.55
G1 X38.70 Y5.97
G1 X39.25 Y6.52
G1 X39.37 Y6.90
G1 X39.37 Y7.46
G1 X39.04 Y8.13
G1 X38.27 Y8.85
G1 X37.22 Y9.40
G1 X35.90 Y9.66
G1 X35.27 Y9.66
G1 X35.10 Y9.49
G1 X34.25 Y10.67
G1 X33.57 Y11.39
G1 X33.11 Y11.73
G1 X32.52 Y11.98
G1 X32.14 Y12.07
G1 X31.42 Y12.07
G1 X30.99 Y11.90
G1 X30.78 Y11.69
G1 X30.70 Y11.48
G1 X30.74 Y11.10
G1 X30.91 Y10.84
G1 X31.33 Y10.59
G1 X31.88 Y10.59
G1 X32.26 Y10.71
G1 X31.88 Y10.59
G1 X31.33 Y10.59
G1 X30.87 Y10.88
G1 X30.70 Y11.22
G1 X30.78 Y11.69
G1 X30.99 Y11.90
G1 X31.42 Y12.07
G1 X32.35 Y12.03
G1 X32.86 Y11.86
G1 X33.36 Y11.56
G1 X34.42 Y10.46
G1 X34.89 Y9.70
G1 X35.10 Y9.49
G1 X35.31 Y8.98
G1 X36.28 Y7.29
G1 X37.38 Y5.76
G1 X37.43 Y5.59
G1 X37.13 Y5.47
G1 X36.28 Y5.38
G1 X34.51 Y5.51
G1 X33.32 Y5.80
G1 X32.05 Y6.44
G1 X31.59 Y6.90
G1 X31.25 Y7.50
G1 X31.20 Y7.92
G1 X31.29 Y8.34
G1 X31.59 Y8.73
G1 X32.01 Y8.94
G1 X32.56 Y8.94
G1 X32.81 Y8.85
G1 X33.41 Y8.39
G1 X33.57 Y8.05
G1 X33.57 Y7.84
G1 X33.57 Y8.05
G1 X33.41 Y8.39
G1 X32.98 Y8.77
G1 X32.56 Y8.94
G1 X32.01 Y8.94
G1 X31.71 Y8.81
G1 X31.33 Y8.43
G1 X31.25 Y8.17
G1 X31.20 Y7.71
G1 X31.29 Y7.37
G1 X31.59 Y6.90
G1 X32.05 Y6.44
G1 X33.11 Y5.89
G1 X34.08 Y5.59
G1 X35.18 Y5.42
G1 X36.28 Y5.38
G1 X37.13 Y5.47
G1 X37.43 Y5.59
G1 X37.68 Y5.55
G1 X37.85 Y5.30
G1 X38.27 Y5.04
G0 Z3.00

G0 X40.98 Y6.78
G1 Z0.00 F1200
G1 X40.77 Y6.86
G1 X40.39 Y7.33
G1 X39.67 Y8.64
G1 X38.23 Y11.65
G1 X37.89 Y11.86
G1 X38.23 Y11.65
G1 X38.82 Y10.55
G1 X39.12 Y10.55
G1 X39.84 Y9.78
G1 X40.31 Y9.57
G1 X40.56 Y9.61
G1 X40.52 Y9.87
G1 X39.92 Y11.14
G1 X39.97 Y11.60
G1 X40.14 Y11.82
G1 X40.43 Y11.82
G1 X40.64 Y11.69
G1 X41.07 Y11.10
G1 X41.28 Y10.97
G1 X41.41 Y11.01
G1 X41.45 Y11.56
G1 X41.62 Y11.73
G1 X42.00 Y11.69
G1 X42.34 Y11.43
G1 X42.80 Y10.84
G1 X43.06 Y10.88
G1 X43.02 Y11.39
G1 X43.23 Y11.77
G1 X43.48 Y11.73
G1 X43.65 Y11.60
G1 X43.90 Y11.60
G1 X43.90 Y11.69
G1 X44.54 Y10.63
G1 X44.67 Y10.50
G1 X44.96 Y10.50
G1 X45.51 Y9.91
G1 X46.02 Y9.57
G1 X46.32 Y9.57
G1 X46.36 Y9.66
G1 X46.23 Y10.12
G1 X45.72 Y11.18
G1 X45.81 Y11.65
G1 X46.02 Y11.82
G1 X46.36 Y11.73
G1 X46.91 Y11.10
G1 X47.33 Y10.29
G1 X47.33 Y10.16
G1 X47.33 Y10.29
G1 X46.91 Y11.10
G1 X46.36 Y11.73
G1 X46.02 Y11.82
G1 X45.81 Y11.65
G1 X45.72 Y11.43
G1 X45.81 Y10.93
G1 X46.23 Y10.12
G1 X46.36 Y9.61
G1 X46.91 Y9.11
G1 X46.36 Y9.61
G1 X46.02 Y9.57
G1 X45.77 Y9.70
G1 X44.96 Y10.50
G1 X44.62 Y10.46
G1 X45.13 Y9.45
G1 X45.43 Y9.15
G1 X45.60 Y9.11
G1 X45.43 Y9.15
G1 X45.05 Y9.57
G1 X44.67 Y10.29
G1 X44.62 Y10.55
G1 X43.95 Y11.60
G1 X43.78 Y11.56
G1 X43.48 Y11.73
G1 X43.23 Y11.77
G1 X43.02 Y11.39
G1 X43.02 Y11.01
G1 X43.14 Y10.59
G1 X43.48 Y9.95
G1 X43.73 Y9.66
G1 X43.95 Y9.61
G1 X43.73 Y9.66
G1 X43.48 Y9.95
G1 X43.02 Y10.84
G1 X42.80 Y10.84
G1 X42.08 Y11.65
G1 X41.62 Y11.73
G1 X41.45 Y11.56
G1 X41.41 Y10.93
G1 X41.70 Y10.25
G1 X42.30 Y9.49
G1 X42.59 Y9.23
G1 X43.14 Y8.98
G1 X43.61 Y9.02
G1 X43.86 Y9.28
G1 X43.48 Y8.98
G1 X42.97 Y9.02
G1 X42.59 Y9.23
G1 X41.83 Y10.04
G1 X41.45 Y10.88
G1 X41.11 Y11.05
G1 X40.64 Y11.69
G1 X40.43 Y11.82
G1 X40.14 Y11.82
G1 X39.92 Y11.43
G1 X39.97 Y11.01
G1 X40.43 Y10.08
G1 X40.56 Y9.61
G1 X41.11 Y9.11
G1 X40.56 Y9.61
G1 X40.31 Y9.57
G1 X40.01 Y9.66
G1 X39.12 Y10.55
G1 X38.87 Y10.55
G1 X38.82 Y10.33
G1 X40.39 Y7.33
G1 X40.77 Y6.86
G1 X41.03 Y6.78
G0 Z3.00

G0 X55.50 Y6.35
G1 Z0.00 F1200
G1 X55.46 Y6.52
G1 X54.36 Y8.17
G1 X53.34 Y10.00
G1 X52.29 Y11.43
G1 X52.58 Y11.69
G1 X53.34 Y11.94
G1 X54.28 Y12.07
G1 X54.91 Y12.07
G1 X56.05 Y11.77
G1 X56.48 Y11.52
G1 X56.94 Y11.10
G1 X57.24 Y10.55
G1 X57.41 Y9.83
G1 X57.32 Y8.56
G1 X56.90 Y7.54
G1 X56.60 Y7.12
G1 X56.05 Y6.57
G1 X55.63 Y6.27
G1 X55.55 Y6.31
G0 Z3.00

G0 X56.56 Y5.30
G1 Z0.00 F1200
G1 X56.01 Y5.76
G1 X55.63 Y6.27
G1 X55.00 Y5.89
G1 X54.36 Y5.68
G1 X53.60 Y5.55
G1 X52.96 Y5.55
G1 X52.16 Y5.68
G1 X51.48 Y5.89
G1 X50.76 Y6.27
G1 X50.38 Y6.61
G1 X49.87 Y7.33
G1 X49.79 Y7.67
G1 X49.83 Y8.09
G1 X49.96 Y8.43
G1 X50.25 Y8.73
G1 X50.51 Y8.85
G1 X51.10 Y8.94
G1 X51.44 Y8.85
G1 X51.86 Y8.60
G1 X52.12 Y8.26
G1 X52.20 Y7.92
G1 X52.16 Y8.17
G1 X51.86 Y8.60
G1 X51.44 Y8.85
G1 X50.93 Y8.94
G1 X50.25 Y8.73
G1 X49.96 Y8.43
G1 X49.79 Y7.88
G1 X49.83 Y7.46
G1 X50.04 Y7.03
G1 X50.51 Y6.48
G1 X50.97 Y6.14
G1 X52.16 Y5.68
G1 X52.96 Y5.55
G1 X53.60 Y5.55
G1 X54.78 Y5.80
G1 X55.42 Y6.10
G1 X55.59 Y6.27
G1 X54.36 Y8.17
G1 X53.34 Y10.00
G1 X52.79 Y10.80
G1 X52.24 Y11.43
G1 X51.99 Y11.43
G1 X51.91 Y11.31
G1 X51.06 Y10.88
G1 X50.21 Y10.63
G1 X49.83 Y10.67
G1 X49.45 Y10.97
G1 X49.32 Y11.31
G1 X49.41 Y11.69
G1 X49.62 Y11.90
G1 X50.04 Y12.07
G1 X50.80 Y12.07
G1 X51.19 Y11.98
G1 X51.74 Y11.73
G1 X52.03 Y11.43
G1 X52.29 Y11.43
G1 X52.58 Y11.69
G1 X53.34 Y11.94
G1 X54.28 Y12.07
G1 X54.91 Y12.07
G1 X56.05 Y11.77
G1 X56.48 Y11.52
G1 X56.94 Y11.10
G1 X57.24 Y10.55
G1 X57.41 Y9.83
G1 X57.32 Y8.56
G1 X57.15 Y8.05
G1 X56.60 Y7.12
G1 X56.05 Y6.57
G1 X55.67 Y6.31
G1 X56.01 Y5.76
G1 X56.35 Y5.42
G1 X56.60 Y5.30
G0 Z3.00

G0 X9.95 Y9.19
G1 Z0.00 F1200
G1 X10.04 Y9.15
G1 X10.12 Y9.28
G1 X10.08 Y9.32
G1 X10.00 Y9.23
G0 Z3.00

G0 X9.95 Y9.28
G1 Z0.00 F1200
G1 X10.00 Y9.23
G1 X10.00 Y9.32
G0 Z3.00

G0 X15.67 Y12.20
G1 Z0.00 F1200
G1 X13.89 Y12.83
G1 X13.47 Y13.09
G1 X13.09 Y13.59
G1 X13.00 Y13.85
G1 X13.04 Y14.19
G1 X13.38 Y14.44
G1 X13.85 Y14.44
G1 X14.65 Y14.10
G1 X15.33 Y13.47
G1 X15.79 Y12.83
G1 X16.01 Y12.37
G1 X15.92 Y12.15
G1 X15.71 Y12.20
G0 Z3.00

G0 X16.51 Y11.65
G1 Z0.00 F1200
G1 X16.56 Y11.60
G1 X16.56 Y11.69
G0 Z3.00

G0 X20.32 Y11.01
G1 Z0.00 F1200
G1 X20.41 Y10.97
G1 X20.49 Y11.05
G1 X20.37 Y11.05
G0 Z3.00

G0 X20.45 Y10.84
G1 Z0.00 F1200
G1 X20.37 Y10.93
G1 X20.58 Y11.10
G1 X20.66 Y11.01
G1 X20.66 Y10.84
G1 X20.49 Y10.84
G0 Z3.00

G0 X21.47 Y12.41
G1 Z0.00 F1200
G1 X19.73 Y12.87
G1 X19.10 Y13.34
G1 X18.80 Y13.85
G1 X18.84 Y14.23
G1 X19.14 Y14.44
G1 X19.65 Y14.44
G1 X20.37 Y14.14
G1 X21.21 Y13.34
G1 X21.72 Y12.54
G1 X21.64 Y12.37
G1 X21.51 Y12.41
G0 Z3.00

G0 X22.36 Y10.33
G1 Z0.00 F1200
G1 X22.27 Y10.42
G1 X22.36 Y10.50
G1 X22.53 Y10.50
G1 X22.57 Y10.33
G1 X22.40 Y10.33
G0 Z3.00

G0 X25.45 Y8.98
G1 Z0.00 F1200
G1 X25.07 Y9.19
G1 X24.35 Y10.04
G1 X24.22 Y10.33
G1 X24.39 Y10.50
G1 X25.15 Y10.29
G1 X25.74 Y9.74
G1 X25.91 Y9.32
G1 X25.87 Y9.11
G1 X25.62 Y8.94
G1 X25.49 Y8.98
G0 Z3.00

G0 X26.46 Y10.50
G1 Z0.00 F1200
G1 X26.51 Y10.46
G1 X26.51 Y10.55
G0 Z3.00

G0 X38.95 Y10.55
G1 Z0.00 F1200
G1 X38.99 Y10.50
G1 X38.99 Y10.59
G0 Z3.00

G0 X43.73 Y11.60
G1 Z0.00 F1200
G1 X43.78 Y11.56
G1 X43.78 Y11.65
G0 Z3.00

G0 X44.79 Y10.50
G1 Z0.00 F1200
G1 X44.84 Y10.46
G1 X44.84 Y10.55
G0 Z3.00

G0 X49.92 Y10.67
G1 Z0.00 F1200
G1 X49.66 Y10.76
G1 X49.37 Y11.14
G1 X49.32 Y11.39
G1 X49.41 Y11.69
G1 X49.87 Y12.03
G1 X50.80 Y12.07
G1 X51.74 Y11.73
G1 X51.95 Y11.56
G1 X51.95 Y11.35
G1 X50.85 Y10.80
G1 X50.21 Y10.63
G1 X49.96 Y10.67
G0 Z3.00

G0 X59.31 Y8.98
G1 Z0.00 F1200
G1 X59.06 Y9.06
G1 X58.81 Y9.28
G1 X58.30 Y10.33
G1 X58.04 Y10.42
G1 X58.26 Y10.42
G1 X57.96 Y11.31
G1 X58.04 Y11.65
G1 X58.21 Y11.77
G1 X58.51 Y11.77
G1 X58.72 Y11.65
G1 X59.48 Y10.76
G1 X59.61 Y10.80
G1 X59.61 Y11.60
G1 X59.78 Y11.77
G1 X60.16 Y11.69
G1 X60.63 Y11.22
G1 X61.13 Y10.29
G1 X60.71 Y11.10
G1 X60.29 Y11.60
G1 X59.91 Y11.77
G1 X59.78 Y11.77
G1 X59.61 Y11.60
G1 X59.61 Y10.71
G1 X60.24 Y9.40
G1 X60.54 Y9.06
G1 X60.88 Y8.98
G1 X60.54 Y9.06
G1 X60.33 Y9.28
G1 X59.69 Y10.63
G1 X59.27 Y10.93
G1 X58.72 Y11.65
G1 X58.51 Y11.77
G1 X58.13 Y11.73
G1 X57.96 Y11.31
G1 X58.26 Y10.38
G1 X58.81 Y9.28
G1 X59.06 Y9.06
G1 X59.36 Y8.98
G0 Z3.00

G0 X0 Y0 ; Tra ve goc 0
M30 ; Ket thuc