; --- G-CODE CNC 1 NÉT TIẾNG VIỆT ---
; Chuỗi: Nguyễn Phan Du
G21 ; Don vi: mm
G90 ; Toa do tuyet doi
G0 Z3.00 ; Lift Pen

G0 X29.37 Y27.82
G1 Z0.00 F1200
G1 X29.46 Y27.73
G1 X29.73 Y27.82
G1 X32.18 Y27.82
G1 X32.27 Y27.92
G1 X33.17 Y27.92
G1 X34.62 Y28.19
G1 X35.71 Y28.73
G1 X36.53 Y29.64
G1 X36.80 Y30.63
G1 X36.80 Y31.27
G1 X36.53 Y32.45
G1 X36.07 Y33.17
G1 X35.08 Y34.08
G1 X33.99 Y34.62
G1 X31.99 Y35.08
G1 X29.82 Y35.08
G1 X29.73 Y34.98
G1 X28.64 Y34.89
G1 X27.82 Y34.62
G1 X26.74 Y33.99
G1 X26.19 Y33.44
G1 X25.74 Y32.63
G1 X25.65 Y31.09
G1 X26.10 Y30.00
G1 X26.74 Y29.27
G1 X27.46 Y28.73
G1 X28.73 Y28.19
G1 X29.00 Y27.82
G1 X29.27 Y27.82
G0 Z3.00

G0 X134.50 Y21.03
G1 Z0.00 F1200
G1 X134.59 Y20.94
G1 X135.23 Y20.94
G1 X135.32 Y21.03
G1 X135.32 Y26.65
G1 X134.86 Y26.83
G1 X133.87 Y27.64
G1 X132.78 Y28.19
G1 X131.51 Y28.55
G1 X129.79 Y28.55
G1 X128.88 Y28.28
G1 X128.25 Y27.92
G1 X127.43 Y27.01
G1 X127.07 Y26.28
G1 X126.89 Y25.56
G1 X126.89 Y24.38
G1 X127.34 Y23.29
G1 X128.07 Y22.57
G1 X128.79 Y22.11
G1 X130.15 Y21.66
G1 X131.78 Y21.30
G1 X133.60 Y21.12
G1 X133.69 Y21.03
G1 X134.41 Y21.03
G0 Z3.00

G0 X188.43 Y15.41
G1 Z0.00 F1200
G1 X188.34 Y15.50
G1 X188.34 Y26.28
G1 X188.16 Y26.56
G1 X187.79 Y26.65
G1 X186.98 Y27.46
G1 X185.98 Y28.10
G1 X185.35 Y28.37
G1 X183.90 Y28.64
G1 X182.45 Y28.55
G1 X181.27 Y28.19
G1 X180.54 Y27.55
G1 X179.91 Y26.37
G1 X179.82 Y25.38
G1 X179.73 Y25.29
G1 X179.73 Y23.29
G1 X179.64 Y23.20
G1 X179.64 Y15.59
G1 X179.73 Y15.50
G1 X179.64 Y15.59
G1 X179.73 Y25.29
G1 X179.82 Y25.38
G1 X179.91 Y26.37
G1 X180.27 Y27.19
G1 X181.00 Y28.01
G1 X181.45 Y28.28
G1 X182.99 Y28.64
G1 X183.90 Y28.64
G1 X185.35 Y28.37
G1 X185.98 Y28.10
G1 X186.98 Y27.46
G1 X187.79 Y26.65
G1 X188.25 Y26.47
G1 X188.34 Y26.56
G1 X188.34 Y28.19
G1 X188.25 Y28.28
G1 X188.34 Y28.19
G1 X188.34 Y26.56
G1 X188.25 Y26.47
G1 X188.34 Y26.28
G1 X188.34 Y15.50
G0 Z3.00

G0 X48.94 Y15.41
G1 Z0.00 F1200
G1 X48.85 Y15.50
G1 X48.85 Y26.28
G1 X48.67 Y26.56
G1 X48.31 Y26.65
G1 X47.49 Y27.46
G1 X46.50 Y28.10
G1 X45.86 Y28.37
G1 X44.41 Y28.64
G1 X42.96 Y28.55
G1 X41.78 Y28.19
G1 X41.06 Y27.55
G1 X40.42 Y26.37
G1 X40.33 Y25.38
G1 X40.24 Y25.29
G1 X40.24 Y23.29
G1 X40.15 Y23.20
G1 X40.15 Y15.59
G1 X40.24 Y15.50
G1 X40.15 Y15.59
G1 X40.24 Y25.29
G1 X40.33 Y25.38
G1 X40.42 Y26.37
G1 X40.79 Y27.19
G1 X41.51 Y28.01
G1 X41.96 Y28.28
G1 X43.50 Y28.64
G1 X44.41 Y28.64
G1 X45.86 Y28.37
G1 X46.50 Y28.10
G1 X47.49 Y27.46
G1 X48.31 Y26.65
G1 X48.76 Y26.47
G1 X48.85 Y26.56
G1 X48.85 Y28.19
G1 X48.76 Y28.28
G1 X48.85 Y28.19
G1 X48.85 Y26.56
G1 X48.76 Y26.47
G1 X48.85 Y26.28
G1 X48.85 Y15.50
G0 Z3.00

G0 X144.83 Y15.23
G1 Z0.00 F1200
G1 X143.84 Y15.50
G1 X143.02 Y15.86
G1 X142.48 Y16.22
G1 X141.57 Y17.13
G1 X140.94 Y17.40
G1 X140.85 Y17.31
G1 X140.85 Y15.59
G1 X140.94 Y15.50
G1 X140.85 Y15.59
G1 X140.85 Y17.31
G1 X140.94 Y17.40
G1 X140.85 Y17.49
G1 X140.85 Y28.19
G1 X140.76 Y28.28
G1 X140.85 Y28.19
G1 X140.85 Y17.49
G1 X141.03 Y17.31
G1 X141.57 Y17.13
G1 X142.48 Y16.22
G1 X143.02 Y15.86
G1 X143.84 Y15.50
G1 X144.83 Y15.23
G1 X146.65 Y15.23
G1 X147.82 Y15.59
G1 X148.64 Y16.22
G1 X149.18 Y17.13
G1 X149.55 Y18.85
G1 X149.55 Y28.19
G1 X149.46 Y28.28
G1 X149.55 Y28.19
G1 X149.55 Y18.85
G1 X149.18 Y17.13
G1 X148.64 Y16.22
G1 X147.82 Y15.59
G1 X146.65 Y15.23
G1 X144.92 Y15.23
G0 Z3.00

G0 X130.51 Y15.23
G1 Z0.00 F1200
G1 X130.42 Y15.32
G1 X129.97 Y15.32
G1 X128.34 Y15.95
G1 X127.79 Y16.31
G1 X127.16 Y17.04
G1 X127.79 Y16.31
G1 X128.34 Y15.95
G1 X129.97 Y15.32
G1 X132.51 Y15.23
G1 X133.14 Y15.41
G1 X133.96 Y15.86
G1 X134.86 Y16.95
G1 X135.32 Y18.76
G1 X135.32 Y20.85
G1 X135.23 Y20.94
G1 X131.78 Y21.30
G1 X129.52 Y21.84
G1 X128.61 Y22.21
G1 X128.07 Y22.57
G1 X127.34 Y23.29
G1 X126.89 Y24.38
G1 X126.89 Y25.56
G1 X127.07 Y26.28
G1 X127.43 Y27.01
G1 X128.25 Y27.92
G1 X128.88 Y28.28
G1 X129.79 Y28.55
G1 X131.51 Y28.55
G1 X132.78 Y28.19
G1 X133.87 Y27.64
G1 X134.86 Y26.83
G1 X135.14 Y26.74
G1 X135.41 Y26.83
G1 X135.41 Y28.19
G1 X135.32 Y28.28
G1 X135.41 Y28.19
G1 X135.41 Y26.83
G1 X135.32 Y26.74
G1 X135.32 Y18.76
G1 X134.86 Y16.95
G1 X133.96 Y15.86
G1 X133.14 Y15.41
G1 X132.51 Y15.23
G1 X130.60 Y15.23
G0 Z3.00

G0 X83.11 Y15.23
G1 Z0.00 F1200
G1 X82.11 Y15.50
G1 X81.30 Y15.86
G1 X80.76 Y16.22
G1 X79.85 Y17.13
G1 X79.21 Y17.40
G1 X79.12 Y17.31
G1 X79.12 Y15.59
G1 X79.21 Y15.50
G1 X79.12 Y15.59
G1 X79.12 Y17.31
G1 X79.21 Y17.40
G1 X79.12 Y17.49
G1 X79.12 Y28.19
G1 X79.03 Y28.28
G1 X79.12 Y28.19
G1 X79.12 Y17.49
G1 X79.31 Y17.31
G1 X79.85 Y17.13
G1 X80.76 Y16.22
G1 X81.30 Y15.86
G1 X82.11 Y15.50
G1 X83.11 Y15.23
G1 X84.92 Y15.23
G1 X86.10 Y15.59
G1 X86.92 Y16.22
G1 X87.46 Y17.13
G1 X87.82 Y18.85
G1 X87.82 Y28.19
G1 X87.73 Y28.28
G1 X87.82 Y28.19
G1 X87.82 Y18.85
G1 X87.46 Y17.13
G1 X86.92 Y16.22
G1 X86.10 Y15.59
G1 X84.92 Y15.23
G1 X83.20 Y15.23
G0 Z3.00

G0 X69.61 Y15.23
G1 Z0.00 F1200
G1 X69.70 Y15.14
G1 X70.60 Y15.14
G1 X70.69 Y15.23
G1 X71.69 Y15.32
G1 X72.96 Y15.95
G1 X73.96 Y16.95
G1 X74.50 Y17.95
G1 X74.86 Y19.21
G1 X74.95 Y20.48
G1 X75.05 Y20.57
G1 X75.05 Y21.30
G1 X74.95 Y21.39
G1 X64.98 Y21.39
G1 X64.89 Y21.30
G1 X65.08 Y19.49
G1 X65.44 Y18.40
G1 X66.07 Y17.22
G1 X66.89 Y16.31
G1 X67.98 Y15.59
G1 X69.15 Y15.23
G1 X69.52 Y15.23
G0 Z3.00

G0 X51.93 Y15.23
G1 Z0.00 F1200
G1 X52.30 Y15.50
G1 X54.74 Y21.12
G1 X55.47 Y22.57
G1 X55.74 Y23.38
G1 X56.10 Y24.02
G1 X56.37 Y24.83
G1 X56.74 Y25.47
G1 X57.55 Y27.55
G1 X57.92 Y27.82
G1 X57.92 Y28.46
G1 X56.83 Y31.09
G1 X55.56 Y34.53
G1 X55.29 Y34.80
G1 X55.56 Y34.53
G1 X56.83 Y31.09
G1 X57.92 Y28.46
G1 X57.92 Y27.82
G1 X58.37 Y27.46
G1 X58.73 Y26.56
G1 X58.82 Y26.10
G1 X59.18 Y25.38
G1 X59.27 Y24.92
G1 X59.82 Y23.75
G1 X59.91 Y23.29
G1 X60.45 Y22.11
G1 X60.54 Y21.66
G1 X61.09 Y20.48
G1 X61.18 Y20.03
G1 X61.72 Y18.85
G1 X62.99 Y15.50
G1 X63.44 Y15.23
G1 X63.17 Y15.32
G1 X62.81 Y15.86
G1 X58.37 Y27.46
G1 X57.92 Y27.82
G1 X57.55 Y27.55
G1 X56.74 Y25.47
G1 X56.37 Y24.83
G1 X56.10 Y24.02
G1 X55.74 Y23.38
G1 X55.47 Y22.57
G1 X54.74 Y21.12
G1 X52.30 Y15.50
G1 X52.02 Y15.32
G0 Z3.00

G0 X30.45 Y15.23
G1 Z0.00 F1200
G1 X30.54 Y15.14
G1 X31.45 Y15.14
G1 X32.54 Y15.41
G1 X33.53 Y15.50
G1 X34.80 Y17.13
G1 X35.26 Y18.94
G1 X35.26 Y19.67
G1 X34.89 Y21.21
G1 X34.53 Y21.75
G1 X33.63 Y22.66
G1 X32.18 Y23.29
G1 X30.54 Y23.38
G1 X30.45 Y23.47
G1 X29.64 Y23.47
G1 X29.46 Y23.29
G1 X29.00 Y23.20
G1 X28.10 Y22.75
G1 X27.10 Y21.66
G1 X26.56 Y20.30
G1 X26.56 Y18.49
G1 X27.19 Y16.95
G1 X28.46 Y15.77
G1 X29.55 Y15.32
G1 X30.36 Y15.23
G0 Z3.00

G0 X69.70 Y15.14
G1 Z0.00 F1200
G1 X68.79 Y15.32
G1 X67.52 Y15.86
G1 X66.89 Y16.31
G1 X65.89 Y17.49
G1 X65.44 Y18.40
G1 X64.98 Y19.85
G1 X64.89 Y23.02
G1 X64.98 Y23.11
G1 X65.08 Y24.11
G1 X65.44 Y25.29
G1 X66.25 Y26.65
G1 X67.16 Y27.55
G1 X67.70 Y27.92
G1 X68.79 Y28.37
G1 X69.70 Y28.55
G1 X70.69 Y28.55
G1 X70.79 Y28.64
G1 X70.88 Y28.55
G1 X71.87 Y28.55
G1 X73.14 Y28.28
G1 X74.68 Y27.55
G1 X75.14 Y27.01
G1 X74.68 Y27.55
G1 X73.60 Y28.10
G1 X72.42 Y28.46
G1 X70.88 Y28.55
G1 X70.79 Y28.64
G1 X70.69 Y28.55
G1 X69.70 Y28.55
G1 X68.25 Y28.19
G1 X67.16 Y27.55
G1 X66.25 Y26.65
G1 X65.80 Y26.01
G1 X65.26 Y24.83
G1 X64.89 Y23.02
G1 X64.89 Y21.48
G1 X64.98 Y21.39
G1 X74.95 Y21.39
G1 X75.05 Y21.30
G1 X74.86 Y19.21
G1 X74.50 Y17.95
G1 X73.96 Y16.95
G1 X72.96 Y15.95
G1 X72.15 Y15.50
G1 X71.33 Y15.23
G1 X69.79 Y15.14
G0 Z3.00

G0 X30.54 Y15.14
G1 Z0.00 F1200
G1 X29.00 Y15.50
G1 X28.19 Y15.95
G1 X27.19 Y16.95
G1 X26.56 Y18.49
G1 X26.56 Y20.30
G1 X27.10 Y21.66
G1 X28.10 Y22.75
G1 X28.55 Y23.02
G1 X29.46 Y23.29
G1 X29.55 Y23.47
G1 X29.27 Y23.84
G1 X28.37 Y24.29
G1 X27.55 Y25.11
G1 X27.28 Y25.83
G1 X27.28 Y26.37
G1 X27.46 Y26.83
G1 X28.01 Y27.37
G1 X28.64 Y27.55
G1 X29.00 Y27.82
G1 X28.73 Y28.19
G1 X27.46 Y28.73
G1 X26.74 Y29.27
G1 X26.10 Y30.00
G1 X25.65 Y31.09
G1 X25.74 Y32.63
G1 X26.19 Y33.44
G1 X26.74 Y33.99
G1 X27.82 Y34.62
G1 X28.64 Y34.89
G1 X29.73 Y34.98
G1 X29.82 Y35.08
G1 X32.72 Y34.98
G1 X33.99 Y34.62
G1 X35.08 Y34.08
G1 X36.34 Y32.81
G1 X36.62 Y32.18
G1 X36.80 Y31.27
G1 X36.80 Y30.63
G1 X36.53 Y29.64
G1 X35.71 Y28.73
G1 X35.08 Y28.37
G1 X33.81 Y28.01
G1 X32.27 Y27.92
G1 X32.18 Y27.82
G1 X29.73 Y27.82
G1 X29.64 Y27.73
G1 X29.00 Y27.82
G1 X28.64 Y27.55
G1 X28.01 Y27.37
G1 X27.37 Y26.65
G1 X27.28 Y25.83
G1 X27.55 Y25.11
G1 X28.37 Y24.29
G1 X29.27 Y23.84
G1 X29.55 Y23.47
G1 X31.72 Y23.38
G1 X32.72 Y23.11
G1 X33.63 Y22.66
G1 X34.53 Y21.75
G1 X34.98 Y20.94
G1 X35.26 Y19.67
G1 X35.26 Y18.94
G1 X34.80 Y17.13
G1 X34.44 Y16.59
G1 X33.81 Y15.95
G1 X33.72 Y15.59
G1 X33.81 Y15.50
G1 X36.44 Y15.50
G1 X36.62 Y15.41
G1 X36.44 Y15.50
G1 X33.81 Y15.50
G1 X33.63 Y15.59
G1 X33.08 Y15.41
G1 X32.54 Y15.41
G1 X32.08 Y15.23
G1 X30.63 Y15.14
G0 Z3.00

G0 X161.24 Y9.79
G1 Z0.00 F1200
G1 X161.33 Y9.70
G1 X166.13 Y9.70
G1 X166.22 Y9.79
G1 X167.22 Y9.79
G1 X167.31 Y9.88
G1 X167.95 Y9.88
G1 X169.67 Y10.24
G1 X171.12 Y10.88
G1 X172.30 Y11.69
G1 X173.11 Y12.51
G1 X173.93 Y13.69
G1 X174.83 Y15.95
G1 X175.02 Y16.86
G1 X175.02 Y17.67
G1 X175.11 Y17.76
G1 X175.02 Y20.94
G1 X174.56 Y22.75
G1 X174.02 Y23.93
G1 X173.38 Y24.92
G1 X172.11 Y26.28
G1 X170.21 Y27.37
G1 X168.04 Y28.01
G1 X166.40 Y28.10
G1 X166.31 Y28.19
G1 X161.33 Y28.19
G1 X161.24 Y28.10
G1 X161.24 Y9.88
G0 Z3.00

G0 X99.61 Y9.79
G1 Z0.00 F1200
G1 X99.70 Y9.70
G1 X103.50 Y9.70
G1 X103.60 Y9.79
G1 X105.32 Y9.88
G1 X106.95 Y10.33
G1 X107.95 Y10.97
G1 X108.67 Y11.78
G1 X109.03 Y12.51
G1 X109.31 Y13.60
G1 X109.31 Y15.50
G1 X109.12 Y16.31
G1 X108.31 Y17.67
G1 X107.49 Y18.31
G1 X105.86 Y18.94
G1 X104.95 Y19.12
G1 X104.14 Y19.12
G1 X104.05 Y19.21
G1 X99.70 Y19.21
G1 X99.61 Y19.12
G1 X99.61 Y9.88
G0 Z3.00

G0 X161.33 Y9.70
G1 Z0.00 F1200
G1 X161.24 Y9.79
G1 X161.24 Y28.10
G1 X161.33 Y28.19
G1 X166.31 Y28.19
G1 X166.40 Y28.10
G1 X167.40 Y28.10
G1 X169.49 Y27.64
G1 X171.30 Y26.83
G1 X172.11 Y26.28
G1 X173.11 Y25.29
G1 X174.02 Y23.93
G1 X174.56 Y22.75
G1 X175.02 Y20.94
G1 X175.02 Y20.12
G1 X175.11 Y20.03
G1 X175.02 Y16.86
G1 X174.47 Y14.86
G1 X173.93 Y13.69
G1 X173.38 Y12.87
G1 X172.30 Y11.69
G1 X171.57 Y11.15
G1 X170.39 Y10.51
G1 X168.49 Y9.97
G1 X167.31 Y9.88
G1 X167.22 Y9.79
G1 X166.22 Y9.79
G1 X166.13 Y9.70
G1 X161.42 Y9.70
G0 Z3.00

G0 X99.70 Y9.70
G1 Z0.00 F1200
G1 X99.61 Y9.79
G1 X99.61 Y28.10
G1 X99.52 Y28.19
G1 X99.61 Y28.10
G1 X99.61 Y19.31
G1 X99.70 Y19.21
G1 X104.05 Y19.21
G1 X104.14 Y19.12
G1 X105.50 Y19.03
G1 X106.68 Y18.67
G1 X107.49 Y18.31
G1 X108.31 Y17.67
G1 X109.12 Y16.31
G1 X109.31 Y15.50
G1 X109.31 Y13.60
G1 X109.03 Y12.51
G1 X108.40 Y11.42
G1 X107.31 Y10.51
G1 X106.22 Y10.06
G1 X104.77 Y9.88
G1 X104.68 Y9.79
G1 X99.79 Y9.70
G0 Z3.00

G0 X8.61 Y9.61
G1 Z0.00 F1200
G1 X8.52 Y9.97
G1 X8.70 Y10.42
G1 X8.52 Y10.69
G1 X8.52 Y12.87
G1 X8.61 Y12.96
G1 X8.61 Y28.10
G1 X8.52 Y28.19
G1 X8.61 Y28.10
G1 X8.61 Y12.96
G1 X8.52 Y12.87
G1 X8.52 Y10.69
G1 X8.79 Y10.51
G1 X9.43 Y10.88
G1 X20.94 Y27.19
G1 X21.48 Y27.46
G1 X21.75 Y28.28
G1 X21.48 Y27.55
G1 X21.57 Y27.28
G1 X21.57 Y9.79
G1 X21.66 Y9.70
G1 X21.57 Y9.79
G1 X21.57 Y27.28
G1 X21.48 Y27.37
G1 X20.94 Y27.19
G1 X9.43 Y10.88
G1 X9.24 Y10.69
G1 X8.88 Y10.60
G1 X8.61 Y10.33
G1 X8.52 Y9.70
G0 Z3.00

G0 X70.24 Y9.43
G1 Z0.00 F1200
G1 X70.33 Y9.70
G1 X69.79 Y10.15
G1 X67.52 Y13.23
G1 X67.25 Y13.41
G1 X67.52 Y13.23
G1 X69.79 Y10.15
G1 X70.24 Y9.79
G1 X70.51 Y9.88
G1 X70.88 Y10.24
G1 X72.87 Y12.96
G1 X73.23 Y13.32
G1 X73.50 Y13.41
G1 X73.23 Y13.32
G1 X72.87 Y12.96
G1 X70.88 Y10.24
G1 X70.33 Y9.79
G1 X70.24 Y9.52
G0 Z3.00

G0 X113.66 Y8.61
G1 Z0.00 F1200
G1 X113.56 Y8.70
G1 X113.56 Y17.31
G1 X113.66 Y17.40
G1 X113.56 Y17.49
G1 X113.56 Y28.19
G1 X113.47 Y28.28
G1 X113.56 Y28.19
G1 X113.56 Y17.49
G1 X113.75 Y17.31
G1 X114.29 Y17.13
G1 X114.83 Y16.50
G1 X115.74 Y15.86
G1 X117.55 Y15.23
G1 X119.37 Y15.23
G1 X120.54 Y15.59
G1 X121.36 Y16.22
G1 X121.90 Y17.13
G1 X122.27 Y18.85
G1 X122.27 Y28.19
G1 X122.18 Y28.28
G1 X122.27 Y28.19
G1 X122.27 Y18.85
G1 X121.90 Y17.13
G1 X121.36 Y16.22
G1 X120.54 Y15.59
G1 X119.37 Y15.23
G1 X117.55 Y15.23
G1 X115.74 Y15.86
G1 X114.83 Y16.50
G1 X114.29 Y17.13
G1 X113.66 Y17.40
G1 X113.56 Y17.31
G1 X113.56 Y8.70
G0 Z3.00

G0 X73.69 Y5.62
G1 Z0.00 F1200
G1 X73.50 Y6.34
G1 X73.14 Y6.98
G1 X72.87 Y7.25
G1 X72.42 Y7.43
G1 X71.60 Y7.43
G1 X70.88 Y7.07
G1 X69.61 Y6.07
G1 X68.97 Y5.80
G1 X68.25 Y5.80
G1 X67.79 Y6.07
G1 X67.34 Y6.62
G1 X66.98 Y7.61
G1 X66.80 Y7.79
G1 X66.98 Y7.61
G1 X67.07 Y7.16
G1 X67.52 Y6.34
G1 X68.25 Y5.80
G1 X69.24 Y5.89
G1 X69.88 Y6.25
G1 X70.88 Y7.07
G1 X71.60 Y7.43
G1 X72.42 Y7.43
G1 X72.87 Y7.25
G1 X73.14 Y6.98
G1 X73.50 Y6.34
G1 X73.60 Y5.71
G0 Z3.00

G0 X0 Y0 ; Tra ve goc 0
M30 ; Ket thuc