; --- GRBL G-Code 1 NÉT (Vector Skeleton) ---
G21 ; mm
G90 ; Absolute
G0 Z3.00

G0 X40.69 Y10.59
G1 Z0.00 F1200
G1 X40.65 Y9.91
G0 Z3.00

G0 X40.47 Y9.83
G1 Z0.00 F1200
G1 X40.65 Y9.91
G0 Z3.00

G0 X40.88 Y10.67
G1 Z0.00 F1200
G1 X40.69 Y10.59
G0 Z3.00

G0 X40.88 Y10.67
G1 Z0.00 F1200
G1 X40.92 Y11.36
G0 Z3.00

G0 X41.21 Y12.23
G1 Z0.00 F1200
G1 X41.12 Y11.76
G0 Z3.00

G0 X41.12 Y11.76
G1 Z0.00 F1200
G1 X41.10 Y11.44
G0 Z3.00

G0 X41.10 Y12.36
G1 Z0.00 F1200
G1 X41.21 Y12.23
G0 Z3.00

G0 X41.09 Y12.41
G1 Z0.00 F1200
G1 X41.10 Y12.36
G0 Z3.00

G0 X40.92 Y11.36
G1 Z0.00 F1200
G1 X41.10 Y11.44
G0 Z3.00

G0 X40.47 Y9.83
G1 Z0.00 F1200
G1 X40.43 Y9.14
G0 Z3.00

G0 X40.25 Y9.06
G1 Z0.00 F1200
G1 X40.21 Y8.36
G0 Z3.00

G0 X40.04 Y8.29
G1 Z0.00 F1200
G1 X40.21 Y8.36
G0 Z3.00

G0 X40.43 Y9.14
G1 Z0.00 F1200
G1 X40.25 Y9.06
G0 Z3.00

G0 X39.85 Y7.52
G1 Z0.00 F1200
G1 X40.01 Y7.59
G0 Z3.00

G0 X40.01 Y7.59
G1 Z0.00 F1200
G1 X40.04 Y8.29
G0 Z3.00

G0 X39.63 Y6.00
G1 Z0.00 F1200
G1 X39.67 Y6.74
G0 Z3.00

G0 X39.67 Y6.74
G1 Z0.00 F1200
G1 X39.82 Y6.81
G0 Z3.00

G0 X39.58 Y5.97
G1 Z0.00 F1200
G1 X39.63 Y6.00
G0 Z3.00

G0 X39.85 Y7.52
G1 Z0.00 F1200
G1 X39.82 Y6.81
G0 Z3.00

G0 X86.33 Y21.43
G1 Z0.00 F1200
G1 X87.01 Y21.30
G0 Z3.00

G0 X87.13 Y21.48
G1 Z0.00 F1200
G1 X87.01 Y21.30
G0 Z3.00

G0 X86.21 Y21.25
G1 Z0.00 F1200
G1 X86.33 Y21.43
G0 Z3.00

G0 X85.53 Y21.38
G1 Z0.00 F1200
G1 X86.21 Y21.25
G0 Z3.00

G0 X67.45 Y18.60
G1 Z0.00 F1200
G1 X68.05 Y18.54
G0 Z3.00

G0 X67.45 Y18.60
G1 Z0.00 F1200
G1 X67.31 Y18.22
G0 Z3.00

G0 X66.75 Y18.25
G1 Z0.00 F1200
G1 X67.31 Y18.22
G0 Z3.00

G0 X72.05 Y19.83
G1 Z0.00 F1200
G1 X71.93 Y19.60
G0 Z3.00

G0 X72.05 Y19.83
G1 Z0.00 F1200
G1 X72.72 Y19.75
G0 Z3.00

G0 X85.41 Y21.20
G1 Z0.00 F1200
G1 X84.74 Y21.33
G0 Z3.00

G0 X84.61 Y21.13
G1 Z0.00 F1200
G1 X84.74 Y21.33
G0 Z3.00

G0 X85.53 Y21.38
G1 Z0.00 F1200
G1 X85.41 Y21.20
G0 Z3.00

G0 X87.88 Y21.42
G1 Z0.00 F1200
G1 X87.82 Y21.35
G0 Z3.00

G0 X87.88 Y21.42
G1 Z0.00 F1200
G1 X88.57 Y21.45
G0 Z3.00

G0 X88.57 Y21.45
G1 Z0.00 F1200
G1 X88.63 Y21.36
G0 Z3.00

G0 X87.13 Y21.48
G1 Z0.00 F1200
G1 X87.82 Y21.35
G0 Z3.00

G0 X89.26 Y21.38
G1 Z0.00 F1200
G1 X88.63 Y21.36
G0 Z3.00

G0 X66.05 Y17.25
G1 Z0.00 F1200
G1 X66.14 Y17.78
G0 Z3.00

G0 X66.14 Y17.78
G1 Z0.00 F1200
G1 X66.61 Y17.79
G0 Z3.00

G0 X66.75 Y18.25
G1 Z0.00 F1200
G1 X66.61 Y17.79
G0 Z3.00

G0 X84.61 Y21.13
G1 Z0.00 F1200
G1 X83.94 Y21.26
G0 Z3.00

G0 X83.94 Y21.26
G1 Z0.00 F1200
G1 X83.82 Y21.07
G0 Z3.00

G0 X72.84 Y19.96
G1 Z0.00 F1200
G1 X73.51 Y19.89
G0 Z3.00

G0 X73.51 Y19.89
G1 Z0.00 F1200
G1 X73.62 Y20.10
G0 Z3.00

G0 X72.72 Y19.75
G1 Z0.00 F1200
G1 X72.84 Y19.96
G0 Z3.00

G0 X74.30 Y20.02
G1 Z0.00 F1200
G1 X73.62 Y20.10
G0 Z3.00

G0 X78.24 Y20.52
G1 Z0.00 F1200
G1 X77.58 Y20.62
G0 Z3.00

G0 X77.46 Y20.43
G1 Z0.00 F1200
G1 X77.58 Y20.62
G0 Z3.00

G0 X78.24 Y20.52
G1 Z0.00 F1200
G1 X78.37 Y20.73
G0 Z3.00

G0 X79.03 Y20.60
G1 Z0.00 F1200
G1 X78.37 Y20.73
G0 Z3.00

G0 X80.76 Y20.97
G1 Z0.00 F1200
G1 X81.42 Y20.85
G0 Z3.00

G0 X81.42 Y20.85
G1 Z0.00 F1200
G1 X81.55 Y21.05
G0 Z3.00

G0 X80.62 Y20.77
G1 Z0.00 F1200
G1 X80.76 Y20.97
G0 Z3.00

G0 X82.22 Y20.93
G1 Z0.00 F1200
G1 X81.55 Y21.05
G0 Z3.00

G0 X70.49 Y19.51
G1 Z0.00 F1200
G1 X71.14 Y19.43
G0 Z3.00

G0 X71.14 Y19.43
G1 Z0.00 F1200
G1 X71.27 Y19.67
G0 Z3.00

G0 X70.36 Y19.25
G1 Z0.00 F1200
G1 X70.49 Y19.51
G0 Z3.00

G0 X71.93 Y19.60
G1 Z0.00 F1200
G1 X71.27 Y19.67
G0 Z3.00

G0 X68.05 Y18.54
G1 Z0.00 F1200
G1 X68.19 Y18.87
G0 Z3.00

G0 X68.81 Y18.81
G1 Z0.00 F1200
G1 X68.19 Y18.87
G0 Z3.00

G0 X69.58 Y19.05
G1 Z0.00 F1200
G1 X69.72 Y19.32
G0 Z3.00

G0 X69.58 Y19.05
G1 Z0.00 F1200
G1 X68.95 Y19.11
G0 Z3.00

G0 X70.36 Y19.25
G1 Z0.00 F1200
G1 X69.72 Y19.32
G0 Z3.00

G0 X68.81 Y18.81
G1 Z0.00 F1200
G1 X68.95 Y19.11
G0 Z3.00

G0 X82.35 Y21.13
G1 Z0.00 F1200
G1 X83.02 Y20.99
G0 Z3.00

G0 X83.15 Y21.20
G1 Z0.00 F1200
G1 X83.02 Y20.99
G0 Z3.00

G0 X83.82 Y21.07
G1 Z0.00 F1200
G1 X83.15 Y21.20
G0 Z3.00

G0 X82.22 Y20.93
G1 Z0.00 F1200
G1 X82.35 Y21.13
G0 Z3.00

G0 X74.30 Y20.02
G1 Z0.00 F1200
G1 X74.41 Y20.22
G0 Z3.00

G0 X75.10 Y20.13
G1 Z0.00 F1200
G1 X74.41 Y20.22
G0 Z3.00

G0 X79.17 Y20.82
G1 Z0.00 F1200
G1 X79.84 Y20.69
G0 Z3.00

G0 X79.84 Y20.69
G1 Z0.00 F1200
G1 X79.97 Y20.89
G0 Z3.00

G0 X79.03 Y20.60
G1 Z0.00 F1200
G1 X79.17 Y20.82
G0 Z3.00

G0 X80.62 Y20.77
G1 Z0.00 F1200
G1 X79.97 Y20.89
G0 Z3.00

G0 X77.46 Y20.43
G1 Z0.00 F1200
G1 X76.79 Y20.52
G0 Z3.00

G0 X76.67 Y20.32
G1 Z0.00 F1200
G1 X76.79 Y20.52
G0 Z3.00

G0 X75.20 Y20.32
G1 Z0.00 F1200
G1 X75.88 Y20.23
G0 Z3.00

G0 X75.88 Y20.23
G1 Z0.00 F1200
G1 X76.00 Y20.42
G0 Z3.00

G0 X75.10 Y20.13
G1 Z0.00 F1200
G1 X75.20 Y20.32
G0 Z3.00

G0 X76.67 Y20.32
G1 Z0.00 F1200
G1 X76.00 Y20.42
G0 Z3.00

G0 X78.44 Y15.59
G1 Z0.00 F1200
G1 X78.05 Y15.32
G0 Z3.00

G0 X78.05 Y15.32
G1 Z0.00 F1200
G1 X78.25 Y14.81
G0 Z3.00

G0 X79.25 Y19.45
G1 Z0.00 F1200
G1 X78.94 Y19.10
G0 Z3.00

G0 X79.07 Y18.72
G1 Z0.00 F1200
G1 X78.94 Y19.10
G0 Z3.00

G0 X78.25 Y16.09
G1 Z0.00 F1200
G1 X78.44 Y15.59
G0 Z3.00

G0 X77.86 Y14.54
G1 Z0.00 F1200
G1 X78.25 Y14.81
G0 Z3.00

G0 X73.54 Y-5.48
G1 Z0.00 F1200
G1 X73.57 Y-5.50
G0 Z3.00

G0 X73.54 Y-5.48
G1 Z0.00 F1200
G1 X73.35 Y-4.92
G0 Z3.00

G0 X73.82 Y-3.88
G1 Z0.00 F1200
G1 X73.46 Y-4.14
G0 Z3.00

G0 X73.46 Y-4.14
G1 Z0.00 F1200
G1 X73.66 Y-4.67
G0 Z3.00

G0 X73.35 Y-4.92
G1 Z0.00 F1200
G1 X73.66 Y-4.67
G0 Z3.00

G0 X77.47 Y11.71
G1 Z0.00 F1200
G1 X77.27 Y12.21
G0 Z3.00

G0 X77.67 Y12.48
G1 Z0.00 F1200
G1 X77.27 Y12.21
G0 Z3.00

G0 X77.86 Y14.54
G1 Z0.00 F1200
G1 X78.06 Y14.03
G0 Z3.00

G0 X78.25 Y16.09
G1 Z0.00 F1200
G1 X78.63 Y16.36
G0 Z3.00

G0 X78.63 Y16.36
G1 Z0.00 F1200
G1 X78.44 Y16.87
G0 Z3.00

G0 X77.08 Y11.44
G1 Z0.00 F1200
G1 X77.27 Y10.93
G0 Z3.00

G0 X77.27 Y10.93
G1 Z0.00 F1200
G1 X76.88 Y10.66
G0 Z3.00

G0 X77.47 Y11.71
G1 Z0.00 F1200
G1 X77.08 Y11.44
G0 Z3.00

G0 X76.69 Y9.89
G1 Z0.00 F1200
G1 X77.07 Y10.16
G0 Z3.00

G0 X77.07 Y10.16
G1 Z0.00 F1200
G1 X76.88 Y10.66
G0 Z3.00

G0 X74.64 Y0.04
G1 Z0.00 F1200
G1 X74.28 Y-0.23
G0 Z3.00

G0 X74.47 Y-0.74
G1 Z0.00 F1200
G1 X74.28 Y-0.23
G0 Z3.00

G0 X74.64 Y0.04
G1 Z0.00 F1200
G1 X74.45 Y0.55
G0 Z3.00

G0 X74.82 Y0.82
G1 Z0.00 F1200
G1 X74.45 Y0.55
G0 Z3.00

G0 X76.12 Y6.27
G1 Z0.00 F1200
G1 X75.74 Y6.00
G0 Z3.00

G0 X75.74 Y6.00
G1 Z0.00 F1200
G1 X75.93 Y5.49
G0 Z3.00

G0 X75.74 Y4.72
G1 Z0.00 F1200
G1 X75.55 Y5.22
G0 Z3.00

G0 X75.55 Y5.22
G1 Z0.00 F1200
G1 X75.93 Y5.49
G0 Z3.00

G0 X76.69 Y8.60
G1 Z0.00 F1200
G1 X76.49 Y9.11
G0 Z3.00

G0 X76.49 Y9.11
G1 Z0.00 F1200
G1 X76.88 Y9.38
G0 Z3.00

G0 X76.50 Y7.83
G1 Z0.00 F1200
G1 X76.30 Y8.33
G0 Z3.00

G0 X76.30 Y8.33
G1 Z0.00 F1200
G1 X76.69 Y8.60
G0 Z3.00

G0 X76.69 Y9.89
G1 Z0.00 F1200
G1 X76.88 Y9.38
G0 Z3.00

G0 X77.47 Y12.99
G1 Z0.00 F1200
G1 X77.86 Y13.26
G0 Z3.00

G0 X77.86 Y13.26
G1 Z0.00 F1200
G1 X77.66 Y13.76
G0 Z3.00

G0 X77.67 Y12.48
G1 Z0.00 F1200
G1 X77.47 Y12.99
G0 Z3.00

G0 X78.06 Y14.03
G1 Z0.00 F1200
G1 X77.66 Y13.76
G0 Z3.00

G0 X78.82 Y17.14
G1 Z0.00 F1200
G1 X78.63 Y17.65
G0 Z3.00

G0 X79.01 Y17.92
G1 Z0.00 F1200
G1 X78.63 Y17.65
G0 Z3.00

G0 X78.44 Y16.87
G1 Z0.00 F1200
G1 X78.82 Y17.14
G0 Z3.00

G0 X79.07 Y18.72
G1 Z0.00 F1200
G1 X78.83 Y18.43
G0 Z3.00

G0 X78.83 Y18.43
G1 Z0.00 F1200
G1 X79.01 Y17.92
G0 Z3.00

G0 X74.47 Y-0.74
G1 Z0.00 F1200
G1 X74.10 Y-1.01
G0 Z3.00

G0 X74.30 Y-1.52
G1 Z0.00 F1200
G1 X74.10 Y-1.01
G0 Z3.00

G0 X74.82 Y0.82
G1 Z0.00 F1200
G1 X74.63 Y1.33
G0 Z3.00

G0 X74.99 Y1.60
G1 Z0.00 F1200
G1 X74.63 Y1.33
G0 Z3.00

G0 X76.12 Y7.56
G1 Z0.00 F1200
G1 X76.31 Y7.05
G0 Z3.00

G0 X76.31 Y7.05
G1 Z0.00 F1200
G1 X75.93 Y6.78
G0 Z3.00

G0 X76.50 Y7.83
G1 Z0.00 F1200
G1 X76.12 Y7.56
G0 Z3.00

G0 X76.12 Y6.27
G1 Z0.00 F1200
G1 X75.93 Y6.78
G0 Z3.00

G0 X74.30 Y-1.52
G1 Z0.00 F1200
G1 X73.93 Y-1.79
G0 Z3.00

G0 X74.13 Y-2.30
G1 Z0.00 F1200
G1 X73.93 Y-1.79
G0 Z3.00

G0 X74.99 Y1.60
G1 Z0.00 F1200
G1 X74.81 Y2.11
G0 Z3.00

G0 X75.18 Y2.38
G1 Z0.00 F1200
G1 X74.81 Y2.11
G0 Z3.00

G0 X73.77 Y-2.57
G1 Z0.00 F1200
G1 X73.97 Y-3.09
G0 Z3.00

G0 X73.97 Y-3.09
G1 Z0.00 F1200
G1 X73.60 Y-3.35
G0 Z3.00

G0 X74.13 Y-2.30
G1 Z0.00 F1200
G1 X73.77 Y-2.57
G0 Z3.00

G0 X73.82 Y-3.88
G1 Z0.00 F1200
G1 X73.60 Y-3.35
G0 Z3.00

G0 X75.18 Y2.38
G1 Z0.00 F1200
G1 X75.00 Y2.89
G0 Z3.00

G0 X75.36 Y3.16
G1 Z0.00 F1200
G1 X75.00 Y2.89
G0 Z3.00

G0 X75.55 Y3.94
G1 Z0.00 F1200
G1 X75.18 Y3.67
G0 Z3.00

G0 X75.55 Y3.94
G1 Z0.00 F1200
G1 X75.37 Y4.44
G0 Z3.00

G0 X75.36 Y3.16
G1 Z0.00 F1200
G1 X75.18 Y3.67
G0 Z3.00

G0 X75.74 Y4.72
G1 Z0.00 F1200
G1 X75.37 Y4.44
G0 Z3.00

G0 X0 Y0
M30